{
"type": "FeatureCollection",
"name": "Bakhsh",
"crs": { "type": "name", "properties": { "name": "urn:ogc:def:crs:OGC:1.3:CRS84" } },
"features": [
{ "type": "Feature", "properties": { "ostan": "خراسان رضوی", "shahrestan": "مشهد", "bakhsh": "مرکزی" }, "geometry": { "type": "MultiPolygon", "coordinates": [ [ [ [ 59.441613882464928, 36.347633029369689 ], [ 59.43881968906247, 36.351427091219414 ], [ 59.438816879711354, 36.351430949126268 ], [ 59.436324852041515, 36.354892141939359 ], [ 59.423082813215636, 36.360179911424993 ], [ 59.423074001694765, 36.36018350817816 ], [ 59.419994871896733, 36.361468122174351 ], [ 59.41984157433356, 36.361562364117823 ], [ 59.419737110478202, 36.361693192164282 ], [ 59.419693964628557, 36.361844971621551 ], [ 59.419647586909406, 36.362561960112501 ], [ 59.419667962575254, 36.362708422673329 ], [ 59.419745693661334, 36.362841728262445 ], [ 59.422804425630794, 36.366419088102774 ], [ 59.423781436665891, 36.369566015282885 ], [ 59.42387871087039, 36.369729423340061 ], [ 59.426120359738043, 36.372107416450199 ], [ 59.426438479308388, 36.374668961848123 ], [ 59.42648735036672, 36.374813402661275 ], [ 59.428490629883463, 36.378308095325032 ], [ 59.428588164273137, 36.378425464917356 ], [ 59.432780246386379, 36.382069341012915 ], [ 59.432893791710576, 36.382144974391117 ], [ 59.43668857169483, 36.384054399624915 ], [ 59.439308839556205, 36.3863396424386 ], [ 59.439366056459328, 36.38638298141975 ], [ 59.442593595424277, 36.38850340368608 ], [ 59.442668450067373, 36.388544880702675 ], [ 59.446675057299103, 36.39039647037481 ], [ 59.446828653124506, 36.390444753098073 ], [ 59.446992999267387, 36.390454599278776 ], [ 59.44715371957129, 36.390425147632804 ], [ 59.447296755071584, 36.390358974445526 ], [ 59.447409593853415, 36.390261868198536 ], [ 59.448723110910336, 36.388728647195663 ], [ 59.450007528959468, 36.388750187527201 ], [ 59.452045647347532, 36.390140611725684 ], [ 59.452096819274381, 36.390171637040346 ], [ 59.453543648719524, 36.39094809900444 ], [ 59.453579014333116, 36.390965581781508 ], [ 59.460553479269521, 36.394131077613885 ], [ 59.460717482280039, 36.394180073660124 ], [ 59.460815752138558, 36.394183164620785 ], [ 59.458906124409381, 36.395114338214228 ], [ 59.458751412457666, 36.395226302148487 ], [ 59.458658144052848, 36.39537628480695 ], [ 59.457285489883212, 36.399258209331407 ], [ 59.457267270563769, 36.39943057153166 ], [ 59.457823712911534, 36.403581039362344 ], [ 59.457886659206793, 36.403745443898728 ], [ 59.459630258005291, 36.406372968835576 ], [ 59.459746381278293, 36.406493280434105 ], [ 59.463604585850902, 36.409329717035526 ], [ 59.463666610180724, 36.409369202727817 ], [ 59.466553069027526, 36.410952476296139 ], [ 59.467682867774599, 36.413298115043382 ], [ 59.467290919941412, 36.41365851590497 ], [ 59.466367530538584, 36.414434769864719 ], [ 59.46636074963142, 36.414440572218808 ], [ 59.464702018316565, 36.415885322256081 ], [ 59.462833476256939, 36.417512725568777 ], [ 59.461148206147527, 36.418980428471812 ], [ 59.4600341381487, 36.419950628659443 ], [ 59.459202702897613, 36.420674673211593 ], [ 59.459139029635232, 36.420741792331377 ], [ 59.457498481026157, 36.422856085853205 ], [ 59.455767297737189, 36.424612591310435 ], [ 59.453411471883193, 36.426770304341829 ], [ 59.453408442583132, 36.426773101972451 ], [ 59.451582720527718, 36.428473254473808 ], [ 59.449215673107624, 36.430024346694545 ], [ 59.449136177981991, 36.430088150626069 ], [ 59.44742011263061, 36.431774695583009 ], [ 59.445347350487189, 36.433811675700973 ], [ 59.440880430187029, 36.437492274423406 ], [ 59.432691846647778, 36.444238104948383 ], [ 59.424286324777256, 36.450810119167009 ], [ 59.419799656069287, 36.454271017617195 ], [ 59.419784624684951, 36.454283060474005 ], [ 59.413266558529138, 36.459706759985913 ], [ 59.402840198662524, 36.463249764880501 ], [ 59.4027310502387, 36.463299143074686 ], [ 59.391547211111138, 36.469787379588205 ], [ 59.381970347578239, 36.470503397615687 ], [ 59.381835427053268, 36.470527354599952 ], [ 59.372443585431569, 36.473214885322783 ], [ 59.372389475829586, 36.473233001527156 ], [ 59.360577802169352, 36.47778762222682 ], [ 59.360512516130868, 36.477817293556349 ], [ 59.35633849050641, 36.480024634697713 ], [ 59.355049104962603, 36.480636617845079 ], [ 59.355022541204235, 36.480650050282684 ], [ 59.353651759478517, 36.481387276530803 ], [ 59.353568233163614, 36.481442301339207 ], [ 59.352279685438859, 36.482473821059337 ], [ 59.352268532237325, 36.482483008009083 ], [ 59.351438727974028, 36.483186326690024 ], [ 59.349952646356165, 36.484125295909372 ], [ 59.348430020905909, 36.484851103509527 ], [ 59.348424111996984, 36.484853959972845 ], [ 59.346825263517147, 36.485637716039427 ], [ 59.346792260470494, 36.485655213362442 ], [ 59.343561161963137, 36.487503510016012 ], [ 59.341173559309887, 36.488772076274316 ], [ 59.341121932762206, 36.488803091962538 ], [ 59.33880217502719, 36.490372318860672 ], [ 59.337917816973182, 36.490646944731722 ], [ 59.33224451132655, 36.489584751868982 ], [ 59.332049963429462, 36.489576514155296 ], [ 59.327085849551011, 36.490072310815897 ], [ 59.326847329123723, 36.490143233888986 ], [ 59.324451418158802, 36.491417981075173 ], [ 59.324339373701164, 36.491496708359357 ], [ 59.324257022873681, 36.491596515033194 ], [ 59.323014878427088, 36.493650666550266 ], [ 59.320406750572921, 36.497501303691735 ], [ 59.317780835261075, 36.500001856933395 ], [ 59.311569939116971, 36.502661827455654 ], [ 59.307362481438744, 36.503598824075695 ], [ 59.307168570875795, 36.503677309813668 ], [ 59.307026377538236, 36.503809556771813 ], [ 59.303857860718693, 36.508284419985152 ], [ 59.303792762602164, 36.508429777223775 ], [ 59.303792354993533, 36.508584342107909 ], [ 59.303856686241204, 36.50872992173862 ], [ 59.306754972991961, 36.512863324415008 ], [ 59.31226845294934, 36.522627262017295 ], [ 59.30873864380807, 36.523627351152072 ], [ 59.308572871104431, 36.523701910534143 ], [ 59.305086331414891, 36.525973747781627 ], [ 59.302190531964129, 36.527213912634778 ], [ 59.298254986622723, 36.528480067610097 ], [ 59.298200815192914, 36.528500265653719 ], [ 59.294956434419511, 36.52988425365011 ], [ 59.291444613590613, 36.531260595380921 ], [ 59.287922752560426, 36.53241580139801 ], [ 59.28788988584823, 36.532427590674686 ], [ 59.28463539786685, 36.533697756749625 ], [ 59.284545259296941, 36.533741854762908 ], [ 59.281907316302458, 36.535325246337059 ], [ 59.278278806147419, 36.536694442936138 ], [ 59.278263121880791, 36.536700603721108 ], [ 59.275721860136912, 36.53773870795775 ], [ 59.272754632096834, 36.538893114633375 ], [ 59.272619517424587, 36.538967062145318 ], [ 59.271067890588604, 36.540116507264599 ], [ 59.270967695041215, 36.540215274997657 ], [ 59.269442624859813, 36.542250427148645 ], [ 59.267212488277835, 36.544519671411855 ], [ 59.267132141762666, 36.544631113145982 ], [ 59.267094202109888, 36.544756353398405 ], [ 59.266698691870957, 36.548064905112284 ], [ 59.266707870182103, 36.548200128343176 ], [ 59.267737259462422, 36.55218292788765 ], [ 59.268256549180094, 36.554386034686793 ], [ 59.267029818911034, 36.55502261591338 ], [ 59.265088320420205, 36.555925398591874 ], [ 59.263134923334505, 36.556610886433496 ], [ 59.263105564776623, 36.556622017529229 ], [ 59.26057376412173, 36.557655352863215 ], [ 59.256908253528188, 36.558922748038917 ], [ 59.256755507344558, 36.559001353559225 ], [ 59.256641991284731, 36.559115270375358 ], [ 59.256080774166918, 36.55991679162095 ], [ 59.256026409858883, 36.560025380913302 ], [ 59.256008574877278, 36.560141605133296 ], [ 59.256021754732018, 36.561624002408024 ], [ 59.256041948012744, 36.561740866600935 ], [ 59.256099062665498, 36.561849493108049 ], [ 59.256189181170271, 36.561942430921128 ], [ 59.258478467442146, 36.563753499900933 ], [ 59.258545080095807, 36.563798552295452 ], [ 59.259745566982829, 36.564489644401192 ], [ 59.25975322015865, 36.564493972567796 ], [ 59.261715890134312, 36.565584260988899 ], [ 59.261733533519447, 36.565593669590776 ], [ 59.266396809132452, 36.567979156266794 ], [ 59.270804044292866, 36.570791446762698 ], [ 59.270964027920449, 36.570862764591368 ], [ 59.274097987579744, 36.571758372480907 ], [ 59.274275061695015, 36.571784170132034 ], [ 59.274453115961563, 36.571763216522889 ], [ 59.280827139926124, 36.570135031442923 ], [ 59.283976271928708, 36.569378068308716 ], [ 59.28757231927186, 36.571274404459793 ], [ 59.291685725341914, 36.574416017785495 ], [ 59.291750673903913, 36.574458647161556 ], [ 59.296178741555728, 36.576944341252805 ], [ 59.29620253430668, 36.576956982400972 ], [ 59.299343394695221, 36.578534513906888 ], [ 59.299347245620858, 36.578536430568931 ], [ 59.30244796927466, 36.580065681291323 ], [ 59.305713809072508, 36.582228986728992 ], [ 59.305867485301675, 36.58230122256618 ], [ 59.306041527397241, 36.582330835127166 ], [ 59.31371745560245, 36.58262815367349 ], [ 59.313737036890302, 36.582628634138445 ], [ 59.320842617258272, 36.582702231541369 ], [ 59.321083652633924, 36.582660880285786 ], [ 59.351693166945331, 36.571273973716551 ], [ 59.367161821739145, 36.572786973304041 ], [ 59.366646677478649, 36.576936767019589 ], [ 59.360204158351578, 36.580392374391984 ], [ 59.344807037089709, 36.584689886586617 ], [ 59.344742064943858, 36.584711804450848 ], [ 59.337002778587106, 36.587797998284422 ], [ 59.336847431478155, 36.587889804855422 ], [ 59.336739976153417, 36.588018698698612 ], [ 59.336693184396054, 36.588169360243704 ], [ 59.336437614863911, 36.591020185202126 ], [ 59.336445549064308, 36.591134913665478 ], [ 59.336489216939484, 36.591244291694366 ], [ 59.338079771186457, 36.59397327287509 ], [ 59.33817985366376, 36.594091510490806 ], [ 59.338320885122293, 36.594178459999725 ], [ 59.352595401545173, 36.600364106216745 ], [ 59.352639319085711, 36.600381185582044 ], [ 59.368934759634868, 36.606024107685741 ], [ 59.36985685123237, 36.615205899803442 ], [ 59.369215345497381, 36.626893667832981 ], [ 59.369237899374731, 36.627041756424013 ], [ 59.372767305981021, 36.636625656726252 ], [ 59.372774897652192, 36.636644707080862 ], [ 59.379535317590957, 36.652394868289925 ], [ 59.381748635612453, 36.659570172603516 ], [ 59.382553185312879, 36.664474923340997 ], [ 59.381231051357844, 36.669673673859847 ], [ 59.381220845816785, 36.669793279190401 ], [ 59.381762069473773, 36.676508324959002 ], [ 59.381794181160807, 36.676632233381859 ], [ 59.384292175247971, 36.682200124907084 ], [ 59.385599758045146, 36.687443528181753 ], [ 59.384767621010305, 36.691881281886282 ], [ 59.382417956040911, 36.695494204375294 ], [ 59.38238051932975, 36.695566412361998 ], [ 59.380985127236933, 36.699091786870049 ], [ 59.380963393441803, 36.69917039724487 ], [ 59.379980764426868, 36.705243322252961 ], [ 59.37998384087598, 36.705376324261152 ], [ 59.380768206171368, 36.709127102670507 ], [ 59.380819016826855, 36.709252973068928 ], [ 59.384514231438196, 36.715232224089299 ], [ 59.38453928750927, 36.715268475748879 ], [ 59.389142347426173, 36.721260474491316 ], [ 59.388629493531539, 36.7255591700076 ], [ 59.388629323613316, 36.725643856578039 ], [ 59.389363148922151, 36.732009826594748 ], [ 59.389392658035554, 36.73211812604665 ], [ 59.389454136670111, 36.732217343984097 ], [ 59.395504731680361, 36.739553233516069 ], [ 59.398077859312046, 36.744656158005576 ], [ 59.397984015937773, 36.746113795307679 ], [ 59.395547149100999, 36.747789504945928 ], [ 59.395500204491292, 36.747825791002754 ], [ 59.393291954357395, 36.74974336160377 ], [ 59.393212740537244, 36.749831451658657 ], [ 59.393162063086791, 36.749932249451263 ], [ 59.389336908363454, 36.761342202196623 ], [ 59.37012597197959, 36.773743926879384 ], [ 59.370096431459018, 36.773764391061988 ], [ 59.340257759833669, 36.795926245839588 ], [ 59.340198249099153, 36.795977919169466 ], [ 59.332309496785015, 36.804003696658832 ], [ 59.322564479670518, 36.808563154858227 ], [ 59.310829265435885, 36.811064547876278 ], [ 59.310818667774761, 36.811066895908901 ], [ 59.300871056744931, 36.813355080350462 ], [ 59.300719229563846, 36.813410781727612 ], [ 59.300594541017105, 36.813499967699428 ], [ 59.300508053115735, 36.813614726028234 ], [ 59.300467438956879, 36.813744875750565 ], [ 59.300476301943945, 36.813878870375596 ], [ 59.300533856024266, 36.814004822244684 ], [ 59.300634995339614, 36.814111557178997 ], [ 59.312192984934583, 36.823125534263987 ], [ 59.318287168667567, 36.828273052324398 ], [ 59.322120589577828, 36.833311933879983 ], [ 59.322152160142124, 36.833349117526133 ], [ 59.327157969644389, 36.838654227123897 ], [ 59.327211908558006, 36.838703478608394 ], [ 59.332227845523171, 36.842660532067342 ], [ 59.328434223274115, 36.849975255451817 ], [ 59.328405319620074, 36.850047660194143 ], [ 59.326356440490351, 36.85721011249683 ], [ 59.326344992736608, 36.857266044813848 ], [ 59.325552072961329, 36.863612510836774 ], [ 59.325566414650424, 36.863768071390467 ], [ 59.327202036285144, 36.868959062176188 ], [ 59.327291988327765, 36.869113309333002 ], [ 59.331001695792999, 36.873214940568886 ], [ 59.332278451940397, 36.876955163639231 ], [ 59.332556892708666, 36.877770796997162 ], [ 59.329882054314503, 36.884530111940776 ], [ 59.325588642729436, 36.890145763815774 ], [ 59.321546059953363, 36.893907506704629 ], [ 59.311124336149391, 36.896847615701027 ], [ 59.311054218792286, 36.896871812406339 ], [ 59.301093007323253, 36.900974432234669 ], [ 59.301087692856875, 36.900976649567646 ], [ 59.290841216885667, 36.905307009944373 ], [ 59.290718607939354, 36.905377147323222 ], [ 59.28319058424659, 36.911048430836232 ], [ 59.276105258447124, 36.916029231555335 ], [ 59.268583961081987, 36.920451959750061 ], [ 59.268558907807318, 36.92046758253143 ], [ 59.264433058025148, 36.923193785629302 ], [ 59.264379547355986, 36.923234134445174 ], [ 59.26068275627027, 36.92641166757474 ], [ 59.260578104775611, 36.926539775612007 ], [ 59.260532978060851, 36.92668863236355 ], [ 59.260139936978376, 36.931329919492306 ], [ 59.260139575786745, 36.931334534345893 ], [ 59.259848361843453, 36.935387405515556 ], [ 59.259295867442134, 36.940717684461454 ], [ 59.25929567580328, 36.94079049760613 ], [ 59.259885460928992, 36.946786137151449 ], [ 59.259922921063499, 36.946916082546956 ], [ 59.261645469438314, 36.950418444467651 ], [ 59.261695366323963, 36.950496586758184 ], [ 59.265115025642672, 36.954766976174483 ], [ 59.267087303397005, 36.957984116698761 ], [ 59.268649965493509, 36.962335640873363 ], [ 59.269509194240925, 36.966027936695816 ], [ 59.270092286097814, 36.970309991839514 ], [ 59.270144291095697, 36.970456064090669 ], [ 59.270253850382538, 36.970579960959 ], [ 59.29112480079953, 36.987283514915816 ], [ 59.291281884239531, 36.987372019969897 ], [ 59.291466948430731, 36.987412913878018 ], [ 59.303001686957522, 36.988313047752129 ], [ 59.303228786501791, 36.988293314151157 ], [ 59.324616628420856, 36.982743731460886 ], [ 59.324650739503198, 36.982733890246116 ], [ 59.346678440038893, 36.975724048706688 ], [ 59.346826963384828, 36.975653940734063 ], [ 59.346941990812475, 36.975550994808863 ], [ 59.34701268737448, 36.975424908012542 ], [ 59.351143206745014, 36.963386618368261 ], [ 59.360588174226834, 36.95751198849112 ], [ 59.382516107316391, 36.944958737003518 ], [ 59.38987386629109, 36.942120794902202 ], [ 59.389937191173409, 36.94209217692493 ], [ 59.396776073226988, 36.938514318870368 ], [ 59.401203982539975, 36.938390903821507 ], [ 59.403676391803856, 36.939207195683828 ], [ 59.408563720369123, 36.943930930327006 ], [ 59.409972912116565, 36.946144186209736 ], [ 59.4100920743129, 36.946270256422068 ], [ 59.410258203312118, 36.946355471118942 ], [ 59.414972982383709, 36.947920145849032 ], [ 59.415183665435428, 36.947954312190333 ], [ 59.427296793568317, 36.948018730764957 ], [ 59.431804918636303, 36.950162941265823 ], [ 59.435471540095548, 36.953600990934142 ], [ 59.435634522275237, 36.953705835616717 ], [ 59.445356331504861, 36.957852056904187 ], [ 59.445446720828244, 36.957882798991363 ], [ 59.453588977381848, 36.959999328228555 ], [ 59.453749388005349, 36.960021130434704 ], [ 59.464002637720021, 36.960204535095237 ], [ 59.474806258141477, 36.960947129026806 ], [ 59.48845027629573, 36.962803790977624 ], [ 59.50002572149959, 36.965750801939251 ], [ 59.500205920818019, 36.965771806400681 ], [ 59.503058370211562, 36.965729063447313 ], [ 59.504447381268754, 36.965851492254842 ], [ 59.504612264678109, 36.965846447857949 ], [ 59.504768197267936, 36.965803153227284 ], [ 59.50490170635166, 36.96572534906521 ], [ 59.50500125674246, 36.96561975770927 ], [ 59.508716020116523, 36.960164998326213 ], [ 59.517378080996096, 36.954951985489181 ], [ 59.517449811327147, 36.954900540945999 ], [ 59.518953908138961, 36.953619484904031 ], [ 59.520101240899386, 36.953224224077324 ], [ 59.529356756681892, 36.951147830268809 ], [ 59.529551889439603, 36.951068526932787 ], [ 59.540609027875568, 36.944110837239549 ], [ 59.540623324511273, 36.944101531758818 ], [ 59.564322240471235, 36.928146544490268 ], [ 59.566332471068932, 36.926799215016622 ], [ 59.566451451520308, 36.926688570653667 ], [ 59.570490528714153, 36.921389628953989 ], [ 59.579074209985514, 36.91164979309432 ], [ 59.587486989443903, 36.907377891237509 ], [ 59.597230048537156, 36.905878010975009 ], [ 59.597259461336336, 36.905872820720397 ], [ 59.608253622926426, 36.90368216757836 ], [ 59.608259644087148, 36.903680939046176 ], [ 59.621395651120508, 36.90093762204841 ], [ 59.621521951422274, 36.900897598902553 ], [ 59.621632574519033, 36.900834372510126 ], [ 59.62608348901994, 36.897571172124039 ], [ 59.626213362664444, 36.897429372502927 ], [ 59.627663532798877, 36.894939487980068 ], [ 59.627686784935314, 36.894892984126024 ], [ 59.630149020491942, 36.889046935752184 ], [ 59.631829650922, 36.886852873564258 ], [ 59.638714649894119, 36.879990894836986 ], [ 59.638762366675493, 36.879935256604369 ], [ 59.647140094089899, 36.868399458851478 ], [ 59.647145824811361, 36.868391375920247 ], [ 59.650903175468443, 36.862961774782541 ], [ 59.650939586146933, 36.862897871005238 ], [ 59.652510587542778, 36.859452850579217 ], [ 59.661374515931797, 36.850364037603548 ], [ 59.661452537998223, 36.850255905363817 ], [ 59.665790277973812, 36.841683719274421 ], [ 59.673825879255105, 36.831411511237725 ], [ 59.683220385960347, 36.826476709802499 ], [ 59.683285911265138, 36.826436457214605 ], [ 59.688776430032284, 36.822516537518887 ], [ 59.688874326300095, 36.822425003482458 ], [ 59.694326992705243, 36.815671131362308 ], [ 59.705842716365936, 36.80316646968032 ], [ 59.728587418303739, 36.793648760518238 ], [ 59.731733517650113, 36.793838770094723 ], [ 59.731834673249971, 36.793837508160102 ], [ 59.735536614276612, 36.793520794728174 ], [ 59.73558712109908, 36.793514587823893 ], [ 59.746677564310311, 36.79173135490835 ], [ 59.75171645914395, 36.791019245413402 ], [ 59.751801530376994, 36.791001593092744 ], [ 59.757726264865262, 36.78936383015678 ], [ 59.78721661090713, 36.783645225880633 ], [ 59.787362680085394, 36.783598637535498 ], [ 59.787486904562094, 36.783521238092554 ], [ 59.787579501487407, 36.783419122922147 ], [ 59.792722465012993, 36.775651332816935 ], [ 59.805253322648227, 36.767148822187849 ], [ 59.805376163015389, 36.76703116561324 ], [ 59.818879779276074, 36.748365646545786 ], [ 59.81889180665987, 36.748348133435748 ], [ 59.822453194813207, 36.742878396313621 ], [ 59.822457248454377, 36.742872048225273 ], [ 59.837541787807062, 36.718773660919993 ], [ 59.846473826429225, 36.712470248693016 ], [ 59.863787810423425, 36.704330487347328 ], [ 59.899844101453937, 36.68774674653411 ], [ 59.89994742027568, 36.68768556035878 ], [ 59.931406596475732, 36.664120461606991 ], [ 59.931472345921179, 36.66406169715426 ], [ 59.943889186621803, 36.650780193519552 ], [ 59.976471516971401, 36.63117220475408 ], [ 59.976592802257379, 36.631072033181873 ], [ 59.982465104901323, 36.624401668412318 ], [ 59.982534791329094, 36.624294354637179 ], [ 59.982566474861706, 36.624175952068491 ], [ 59.982557863777664, 36.624055025620954 ], [ 59.978811112336217, 36.608533942696056 ], [ 60.002548258402697, 36.583675973860821 ], [ 60.002652777499328, 36.583491819768547 ], [ 60.006807649264744, 36.567165492350611 ], [ 60.006816552341185, 36.567032398132135 ], [ 60.006295017075296, 36.562599167131282 ], [ 60.006953815579784, 36.549440338903089 ], [ 60.006953946889595, 36.549406832887435 ], [ 60.006525709570511, 36.539259877397335 ], [ 60.009005307587316, 36.534220457360242 ], [ 60.009043564870225, 36.53408292303773 ], [ 60.009623390272388, 36.526744114381387 ], [ 60.015639212813063, 36.522024836191285 ], [ 60.019716338271358, 36.520386559063098 ], [ 60.019868865960085, 36.520296383522954 ], [ 60.019975326136453, 36.520170270975001 ], [ 60.024759218047741, 36.511702186115961 ], [ 60.024788069302438, 36.511638961442365 ], [ 60.026409247738343, 36.50705427948931 ], [ 60.029232930971773, 36.503437657128003 ], [ 60.032471502257017, 36.501019532177779 ], [ 60.03247639964367, 36.501015830940567 ], [ 60.049899297813617, 36.487685298900359 ], [ 60.050002355471491, 36.487578331110406 ], [ 60.050061334998659, 36.48745144873606 ], [ 60.050070895206417, 36.487316142740127 ], [ 60.050030170542954, 36.487184666899729 ], [ 60.047157589695232, 36.481638188748349 ], [ 60.047050054668489, 36.48150403132999 ], [ 60.023142818667715, 36.460889901231582 ], [ 60.016783857845681, 36.44593930255769 ], [ 60.021227109342192, 36.413564189745486 ], [ 60.021209759401593, 36.413392808630029 ], [ 60.02111420505252, 36.413239175552455 ], [ 60.003780348030865, 36.395102824335609 ], [ 60.00365633360903, 36.395007712426903 ], [ 59.980221203395054, 36.381901187492858 ], [ 59.960767457912588, 36.357909332087651 ], [ 59.954352187988945, 36.33843393701251 ], [ 59.954290809226123, 36.338317074878752 ], [ 59.954191554056756, 36.338218717413085 ], [ 59.954062311684275, 36.338146682352587 ], [ 59.936417367293039, 36.331039615027827 ], [ 59.931792707355093, 36.322215298035402 ], [ 59.931683708344238, 36.322080830676924 ], [ 59.93152327926731, 36.321985923107547 ], [ 59.911796117468462, 36.314237170140174 ], [ 59.892261213988021, 36.298593865681035 ], [ 59.884695874603651, 36.282464302463133 ], [ 59.894419594524706, 36.257257830177736 ], [ 59.89443030747843, 36.257225997208202 ], [ 59.895668408988271, 36.252932787209545 ], [ 59.895680000543649, 36.25278375675061 ], [ 59.895630796120152, 36.252639847232622 ], [ 59.895526204447947, 36.252516876829901 ], [ 59.895377722142143, 36.252428362081488 ], [ 59.895201669973915, 36.252384032234623 ], [ 59.881582313550645, 36.250886351837742 ], [ 59.881398835549305, 36.250890930128094 ], [ 59.87087478332834, 36.252588292733229 ], [ 59.870800873581963, 36.252604565679611 ], [ 59.841451072892085, 36.260858123740022 ], [ 59.83126987594553, 36.259978538176881 ], [ 59.810308144025328, 36.251825266726662 ], [ 59.810263260597949, 36.251809727881692 ], [ 59.781786400418845, 36.243122726812416 ], [ 59.78170530533216, 36.243103531706502 ], [ 59.753723713451429, 36.238310288004399 ], [ 59.753484911915876, 36.238311814821486 ], [ 59.746387825926988, 36.23962337090822 ], [ 59.746384879191154, 36.239623922209198 ], [ 59.72206775178212, 36.244227131258114 ], [ 59.716227980192507, 36.235858812038948 ], [ 59.716112403290694, 36.235743131187895 ], [ 59.715956605053073, 36.235664274440708 ], [ 59.715777592278371, 36.23563084969922 ], [ 59.714253153061371, 36.235555950116421 ], [ 59.714053509183302, 36.23557566171138 ], [ 59.713875581387434, 36.235651621692327 ], [ 59.707493414991525, 36.239721046115996 ], [ 59.707383586495361, 36.23981461819249 ], [ 59.707311037621629, 36.239929585542029 ], [ 59.70728172939765, 36.240056502075838 ], [ 59.70729807010504, 36.240184939872599 ], [ 59.70735871733968, 36.240304345968575 ], [ 59.708966344295419, 36.24250594542842 ], [ 59.709078709134694, 36.242615560859797 ], [ 59.709227716506412, 36.242691264202769 ], [ 59.709398458169687, 36.242725481282704 ], [ 59.709573851256863, 36.242714788657409 ], [ 59.709736347507153, 36.242660256147246 ], [ 59.709967713324481, 36.242544940443096 ], [ 59.712718226422389, 36.245897749533924 ], [ 59.711725672548162, 36.246318668232874 ], [ 59.71158936456608, 36.246400042970954 ], [ 59.711489608350441, 36.246510873062277 ], [ 59.711435653063717, 36.246640882798431 ], [ 59.711432501478527, 36.246778018155524 ], [ 59.711480446059156, 36.246909564384346 ], [ 59.71175824575662, 36.24738764454294 ], [ 59.704441777990816, 36.250834514347773 ], [ 59.694034585420845, 36.254886062887344 ], [ 59.682178983044459, 36.245813057246295 ], [ 59.682049739911243, 36.245739198344793 ], [ 59.68190005400038, 36.24569780071284 ], [ 59.681742034467931, 36.245692213302135 ], [ 59.68158846460765, 36.245722888125968 ], [ 59.681451767772153, 36.24578734369166 ], [ 59.676339284740486, 36.249067044297711 ], [ 59.667701068752976, 36.243842164990241 ], [ 59.69414092524552, 36.212738115404903 ], [ 59.694213054772263, 36.212618555665578 ], [ 59.694238925847628, 36.212487134291003 ], [ 59.694216280530334, 36.212355322484726 ], [ 59.694147095653413, 36.212234625473776 ], [ 59.69403741019854, 36.212135578281 ], [ 59.685315582290407, 36.206287692306283 ], [ 59.683505913602836, 36.203951338769549 ], [ 59.683396941202382, 36.203848856822255 ], [ 59.683255337655275, 36.203777220521651 ], [ 59.67961971740862, 36.202505966054694 ], [ 59.676836868495769, 36.200553278749268 ], [ 59.676638183429155, 36.200463709314249 ], [ 59.672676186639741, 36.199464596889264 ], [ 59.672432774869975, 36.199448747288066 ], [ 59.663882720124711, 36.200434395217421 ], [ 59.658796083565122, 36.199261620587208 ], [ 59.658687233756247, 36.199245792664385 ], [ 59.646582707276792, 36.198479702190568 ], [ 59.646694490233102, 36.194509544598084 ], [ 59.646668697991565, 36.194363256364014 ], [ 59.646585890452336, 36.194231604765491 ], [ 59.646454979091502, 36.194128757325593 ], [ 59.646290051857179, 36.194065781802955 ], [ 59.625493924525856, 36.189298925094278 ], [ 59.62385834769772, 36.188073184791115 ], [ 59.623700691416936, 36.187990143292367 ], [ 59.623517899064367, 36.187954470244378 ], [ 59.62189309680592, 36.187867048391638 ], [ 59.621674732773513, 36.187661438864176 ], [ 59.622593941581414, 36.187054434744191 ], [ 59.622704827864922, 36.186955680190003 ], [ 59.622775127515013, 36.186834912523231 ], [ 59.622798663040619, 36.186702744391646 ], [ 59.622773366466504, 36.186570790220308 ], [ 59.622701460978668, 36.186450645576222 ], [ 59.6208442595441, 36.18425218030837 ], [ 59.620724814646316, 36.184149793710056 ], [ 59.620572190713794, 36.184082335363215 ], [ 59.620401323789579, 36.184056406843091 ], [ 59.620228935124658, 36.184074545557607 ], [ 59.62007189489092, 36.184134976440944 ], [ 59.618090890678253, 36.1852342151033 ], [ 59.61796951701885, 36.185325886828927 ], [ 59.617886931832494, 36.185442517423276 ], [ 59.617850495155068, 36.185573712973749 ], [ 59.617758148453454, 36.18661709678296 ], [ 59.609030239017045, 36.187759379398798 ], [ 59.608859447875581, 36.187805686779512 ], [ 59.608715892993779, 36.187893836679201 ], [ 59.608614650868709, 36.188014571452875 ], [ 59.608566354381715, 36.188155211281796 ], [ 59.607963465021257, 36.192631396192056 ], [ 59.604337495132043, 36.19663051231575 ], [ 59.604254867349049, 36.19676288478103 ], [ 59.598446911349413, 36.21181932737111 ], [ 59.593881979288163, 36.21968287251044 ], [ 59.593844264400289, 36.219770112641783 ], [ 59.591491763492968, 36.227760642739291 ], [ 59.591480309647984, 36.227813135243935 ], [ 59.590171303629539, 36.236931646236954 ], [ 59.587693154126356, 36.2370831203961 ], [ 59.58755518794257, 36.23710604151659 ], [ 59.587428755055072, 36.237156307411375 ], [ 59.586825653775826, 36.237478649079108 ], [ 59.583964103234017, 36.23825285886825 ], [ 59.583799877059178, 36.238323907593831 ], [ 59.583673804135792, 36.238434887962782 ], [ 59.583600016570827, 36.238573359838384 ], [ 59.583586785779524, 36.238723801396439 ], [ 59.584208142829084, 36.243892639528191 ], [ 59.584219243154919, 36.243948417943628 ], [ 59.584796576839295, 36.246014649895223 ], [ 59.584694458722581, 36.248073247388405 ], [ 59.581201701338131, 36.252341375036998 ], [ 59.578199556304611, 36.254072633390464 ], [ 59.573527796248264, 36.254707728031597 ], [ 59.569361071893397, 36.254737329919834 ], [ 59.569306044200552, 36.254739932186361 ], [ 59.56231309520858, 36.255353193716495 ], [ 59.562265960756612, 36.255358990361131 ], [ 59.55406732868105, 36.256660287141194 ], [ 59.554044982858478, 36.256664221034107 ], [ 59.546161681408407, 36.258189852226401 ], [ 59.546110075336856, 36.258201999297704 ], [ 59.543531770672324, 36.258919933475362 ], [ 59.54344699183725, 36.258950143406487 ], [ 59.539403314435198, 36.260729994754819 ], [ 59.539305527610068, 36.26078474249082 ], [ 59.537936173154911, 36.261741664466548 ], [ 59.527234608630934, 36.267777160126883 ], [ 59.518526693735716, 36.272042850183588 ], [ 59.512116794230913, 36.273401212109846 ], [ 59.507298274991676, 36.274357434462942 ], [ 59.507123003572879, 36.274419652705134 ], [ 59.501335716852395, 36.277530012655774 ], [ 59.501270222876059, 36.277571216982722 ], [ 59.494019419242171, 36.282879488059585 ], [ 59.491787510944945, 36.284214322138745 ], [ 59.486942569627573, 36.286019085851407 ], [ 59.486880545233383, 36.2860461649108 ], [ 59.481665547296409, 36.288680795001042 ], [ 59.477063376561752, 36.289976175478742 ], [ 59.474294503330853, 36.290630829362449 ], [ 59.474234469128852, 36.290648098529076 ], [ 59.471340830907671, 36.291634846594896 ], [ 59.471244063553371, 36.291677416209133 ], [ 59.468906889790148, 36.292963161208846 ], [ 59.46874866025491, 36.293095845215241 ], [ 59.466819550186386, 36.295577577098939 ], [ 59.466785885947594, 36.295627657395833 ], [ 59.465635834771938, 36.297630926921727 ], [ 59.465597954019934, 36.297720528956887 ], [ 59.464855974733524, 36.300351613900688 ], [ 59.46484538861371, 36.300402360157435 ], [ 59.464400188653592, 36.303661196735987 ], [ 59.464399542656437, 36.303666178622194 ], [ 59.464065640684993, 36.30638675457935 ], [ 59.464075961385333, 36.306528258291031 ], [ 59.46442415198711, 36.3078068291831 ], [ 59.463703007474791, 36.311778035233388 ], [ 59.462933607248587, 36.313992197709553 ], [ 59.462914399670005, 36.314080236937038 ], [ 59.462543390609731, 36.318055901355962 ], [ 59.462555667368335, 36.318189720715246 ], [ 59.46289490956439, 36.319397002662278 ], [ 59.461187544705943, 36.319942518235479 ], [ 59.461001647503714, 36.320040332929587 ], [ 59.457996702293485, 36.322431533320916 ], [ 59.457892514629307, 36.322545839621142 ], [ 59.457837483539819, 36.322680714101828 ], [ 59.457160066742119, 36.326064424410781 ], [ 59.440128613510716, 36.328220178578484 ], [ 59.437426625395261, 36.328220177499546 ], [ 59.4372438300407, 36.328245148375387 ], [ 59.437081299432442, 36.328317296892287 ], [ 59.436957052680512, 36.328428624282594 ], [ 59.436884864697298, 36.328566788147384 ], [ 59.436872738993095, 36.328716470763823 ], [ 59.436922020244737, 36.328861077276933 ], [ 59.437060095968718, 36.329100670746243 ], [ 59.436166309098247, 36.329147627609593 ], [ 59.435996855886017, 36.329178498710633 ], [ 59.435847405381409, 36.329250119218379 ], [ 59.435732502967902, 36.329355518656826 ], [ 59.435663331752124, 36.329484438968692 ], [ 59.435646624132154, 36.329624332855495 ], [ 59.435684006480173, 36.329761584934843 ], [ 59.436277569177875, 36.33098694685485 ], [ 59.436368231293088, 36.331110963831726 ], [ 59.436502647637909, 36.33120547698374 ], [ 59.436667067952506, 36.331260817911598 ], [ 59.436844672536296, 36.33127132540335 ], [ 59.437836266776003, 36.33120084058104 ], [ 59.438689821437286, 36.331937586409573 ], [ 59.438823778062854, 36.332022455831222 ], [ 59.438983156135684, 36.332070631768097 ], [ 59.439153073833019, 36.332077615824801 ], [ 59.439998510146097, 36.332007159397818 ], [ 59.441973713993391, 36.333315014308575 ], [ 59.441250508227043, 36.33374779796435 ], [ 59.441136683555747, 36.333839137932515 ], [ 59.441059741508383, 36.33395293195251 ], [ 59.440688755878959, 36.334759829757573 ], [ 59.440655271507161, 36.334884358099799 ], [ 59.440666228418017, 36.335011490665416 ], [ 59.440720750002605, 36.33513105378146 ], [ 59.440814473380293, 36.335233479471448 ], [ 59.44093989848561, 36.335310571141719 ], [ 59.441793273097268, 36.335694736161194 ], [ 59.441600195649002, 36.336147192568809 ], [ 59.439535467335425, 36.337228288670289 ], [ 59.43939734517074, 36.33733108669928 ], [ 59.439309279531138, 36.337465171767477 ], [ 59.439281274778565, 36.337615312077887 ], [ 59.439316512558811, 36.337764451897058 ], [ 59.439410990220686, 36.337895649053728 ], [ 59.440836554692304, 36.339273662747893 ], [ 59.44160682583184, 36.34086531353455 ], [ 59.441473179230492, 36.341861044636964 ], [ 59.441485984123759, 36.342017089130607 ], [ 59.441815121213018, 36.343101683117119 ], [ 59.440316250073323, 36.344206228146149 ], [ 59.440213824394014, 36.34430737167358 ], [ 59.440151614600822, 36.344428049906675 ], [ 59.440134861156132, 36.344558097468877 ], [ 59.440164975524581, 36.344686559702126 ], [ 59.441315000638056, 36.34737583678055 ], [ 59.441404415907975, 36.347507928362539 ], [ 59.441542652581305, 36.347608798887954 ], [ 59.441613882464928, 36.347633029369689 ] ] ] ] } },
{ "type": "Feature", "properties": { "ostan": "خراسان رضوی", "shahrestan": "مشهد", "bakhsh": "احمدآباد" }, "geometry": { "type": "MultiPolygon", "coordinates": [ [ [ [ 59.536329735923665, 36.187220262142006 ], [ 59.538097666985301, 36.187011299120847 ], [ 59.538290305343217, 36.186957988652289 ], [ 59.538446339936613, 36.186852022646278 ], [ 59.538577305285408, 36.186723197740911 ], [ 59.540247326391928, 36.186717557883078 ], [ 59.540339808110666, 36.186821523867444 ], [ 59.540447926927371, 36.186912712207615 ], [ 59.540583054267501, 36.186975943048516 ], [ 59.540734538650099, 36.187006232172209 ], [ 59.585902747355519, 36.190707651767134 ], [ 59.586325349057653, 36.190936988231776 ], [ 59.586475197481683, 36.190994224309726 ], [ 59.586639200989502, 36.19101311612782 ], [ 59.587463268748834, 36.191007480680469 ], [ 59.587582109844085, 36.191128143722572 ], [ 59.587705018552349, 36.191220201965471 ], [ 59.587856163247523, 36.191278428123717 ], [ 59.588021839004966, 36.191297542580138 ], [ 59.589128097370057, 36.191288790721067 ], [ 59.595056170070649, 36.199032216492604 ], [ 59.591627923013284, 36.206444402026129 ], [ 59.59086842026958, 36.206880559514275 ], [ 59.586113311698639, 36.209565261657069 ], [ 59.585979656496001, 36.209671997765206 ], [ 59.585897438452115, 36.209808691241001 ], [ 59.585876026678477, 36.209959765737146 ], [ 59.586571544213072, 36.220151253226412 ], [ 59.586609880361898, 36.220292502603833 ], [ 59.586701479863876, 36.220416629163211 ], [ 59.5882025229348, 36.221860211565421 ], [ 59.587297050746827, 36.237255268529552 ], [ 59.587295141467536, 36.237256703137461 ], [ 59.587208768308109, 36.237386701554449 ], [ 59.587178912593814, 36.237532340406126 ], [ 59.58720878125807, 36.237677977519461 ], [ 59.587295166583857, 36.237807970825067 ], [ 59.587428790600775, 36.237908358401299 ], [ 59.587595301508344, 36.23796835808897 ], [ 59.587776815134227, 36.237981525592012 ], [ 59.590712493270061, 36.237802078481366 ], [ 59.590897516462761, 36.237764158432704 ], [ 59.591055814673837, 36.237677790744335 ], [ 59.591168740810097, 36.237553149367656 ], [ 59.591222992697453, 36.237404916753903 ], [ 59.592581062853114, 36.227943730299081 ], [ 59.594912506256307, 36.220024350870268 ], [ 59.599469137304162, 36.212174919806039 ], [ 59.599496680386508, 36.212117601693393 ], [ 59.605288116409241, 36.197103469420682 ], [ 59.60894754988712, 36.193067382716166 ], [ 59.609017611448358, 36.192964044404562 ], [ 59.609052189136278, 36.192849508971186 ], [ 59.609625279787046, 36.188594138830837 ], [ 59.618369552189108, 36.187449677797957 ], [ 59.618544874238403, 36.187401393667265 ], [ 59.618690894050161, 36.187309096048402 ], [ 59.618791399775986, 36.18718303237624 ], [ 59.618835232966923, 36.187037198929488 ], [ 59.618939855096933, 36.185854937047921 ], [ 59.620241194913469, 36.185132835679632 ], [ 59.621495560412818, 36.18661771154698 ], [ 59.620530058816286, 36.187255273379122 ], [ 59.620412463139594, 36.18736234785208 ], [ 59.62034232242052, 36.187493950747573 ], [ 59.62032674061988, 36.187636753596031 ], [ 59.620367296131413, 36.187776293544552 ], [ 59.620459881809147, 36.187898438129729 ], [ 59.621202759369694, 36.188597933787563 ], [ 59.621312223047937, 36.188676979171071 ], [ 59.621443377076815, 36.188730070621425 ], [ 59.621587094274638, 36.188753513428473 ], [ 59.623248174714639, 36.188842889436792 ], [ 59.624837233121994, 36.190033770643723 ], [ 59.62506320451493, 36.190136457337992 ], [ 59.645573452840068, 36.194837833494027 ], [ 59.645459435785568, 36.198885306716363 ], [ 59.645480981240524, 36.199020206863445 ], [ 59.645551226979926, 36.199143743938244 ], [ 59.645663767935936, 36.199244653367685 ], [ 59.645808342291552, 36.199313733818755 ], [ 59.645971767180029, 36.199344686240671 ], [ 59.658545367224427, 36.200140489120301 ], [ 59.663201206952323, 36.201213945202014 ], [ 59.663380319798954, 36.201230598027514 ], [ 59.663556585907671, 36.201199908162685 ], [ 59.663711457956197, 36.201125104914695 ], [ 59.710864419930878, 36.168891487167826 ], [ 59.710977736043475, 36.168785353447376 ], [ 59.711045255476257, 36.168656089914997 ], [ 59.711060421035242, 36.168516250542744 ], [ 59.71102176013629, 36.168379416350454 ], [ 59.710933027716408, 36.168258876432404 ], [ 59.696456591439784, 36.154165052270208 ], [ 59.704105472735577, 36.14424385951294 ], [ 59.704169276991159, 36.144126780927728 ], [ 59.704189901916713, 36.143999872782246 ], [ 59.703880215391898, 36.122150417703445 ], [ 59.703865911521035, 36.122053874720223 ], [ 59.702937293180284, 36.118803439949083 ], [ 59.702860582193942, 36.118657975862547 ], [ 59.6896874826028, 36.102369916686555 ], [ 59.669269498745948, 36.071669806901575 ], [ 59.669177911192648, 36.071568797685984 ], [ 59.669055568939029, 36.071492204657289 ], [ 59.66573485735595, 36.069958444689576 ], [ 59.659546790059913, 36.059954315325697 ], [ 59.657584366471248, 36.033875566910488 ], [ 59.673933320491372, 36.014949526709607 ], [ 59.674006123743546, 36.014831576057418 ], [ 59.674033736290262, 36.014701547055182 ], [ 59.674013789234856, 36.014570596023965 ], [ 59.673947994224768, 36.014449958340066 ], [ 59.666052409375304, 36.004309021550867 ], [ 59.655293758276336, 35.990502472835161 ], [ 59.655293393005614, 35.990502004618513 ], [ 59.642766278064713, 35.974462033100664 ], [ 59.642766242266461, 35.969308756986237 ], [ 59.642744650514906, 35.969184236566683 ], [ 59.642681559093027, 35.969069419273048 ], [ 59.642581884407711, 35.968973251965267 ], [ 59.640565712382433, 35.967504669123308 ], [ 59.640685956706626, 35.966531409034786 ], [ 59.640666945256186, 35.966361320410648 ], [ 59.64057141541452, 35.966209208667593 ], [ 59.632108697666418, 35.957393902379955 ], [ 59.631766726627085, 35.956342040535283 ], [ 59.631662068931881, 35.956174085850911 ], [ 59.614004620482596, 35.938395934100619 ], [ 59.605250711440696, 35.929445922168938 ], [ 59.60524778763903, 35.92944295815181 ], [ 59.592351997384142, 35.916479228912003 ], [ 59.584872784449892, 35.907542922373544 ], [ 59.5787915370232, 35.900094185942585 ], [ 59.57270853290558, 35.892522404587567 ], [ 59.57270718977091, 35.8925207405658 ], [ 59.56433898235467, 35.882201334069237 ], [ 59.560251901328954, 35.875787792559386 ], [ 59.560158023523456, 35.875681680767165 ], [ 59.557756483399174, 35.87366463655016 ], [ 59.552897183616849, 35.858450260543506 ], [ 59.550969022005241, 35.85201899569207 ], [ 59.550965095865131, 35.852006659275418 ], [ 59.543916334720862, 35.83107580179464 ], [ 59.543843859059933, 35.83094593719229 ], [ 59.543725159785232, 35.830841033947699 ], [ 59.528069801913389, 35.820794692802288 ], [ 59.527918115, 35.820725634838752 ], [ 59.527747606601899, 35.820698313065712 ], [ 59.517762750768732, 35.820400660247287 ], [ 59.502598567823938, 35.814961911202474 ], [ 59.489576895319097, 35.795630657346031 ], [ 59.487467663292314, 35.790852107436322 ], [ 59.487323689503327, 35.788516626267558 ], [ 59.486954429709421, 35.777614986357428 ], [ 59.489688796614651, 35.765682480540249 ], [ 59.489691612101694, 35.765669073910338 ], [ 59.496072255301691, 35.732248890517944 ], [ 59.496074157273263, 35.732238061101917 ], [ 59.49837414036341, 35.717902226360472 ], [ 59.498368294146907, 35.71775630969784 ], [ 59.498305540325696, 35.717619578641134 ], [ 59.498192468683548, 35.717506390764214 ], [ 59.496905789356198, 35.716577804294523 ], [ 59.490309674352353, 35.708901316267614 ], [ 59.489667150296938, 35.707394121291927 ], [ 59.489562704076235, 35.707246889014662 ], [ 59.48939877362605, 35.707141734773607 ], [ 59.485392196728107, 35.705454786855952 ], [ 59.485231940691783, 35.705411036702912 ], [ 59.485062967359163, 35.705408852936017 ], [ 59.452331444483967, 35.709104638601083 ], [ 59.430906424065697, 35.711312310664219 ], [ 59.430842177971364, 35.711322103079148 ], [ 59.429079841908184, 35.711679840166262 ], [ 59.411588273211429, 35.714207350024267 ], [ 59.411387292094389, 35.714271257373781 ], [ 59.392051124503212, 35.724337590475386 ], [ 59.375542725824232, 35.726124500186693 ], [ 59.370495766730535, 35.72570373089242 ], [ 59.352004773807273, 35.722283679199251 ], [ 59.351833945905518, 35.722274251701776 ], [ 59.351667780666112, 35.722307923042884 ], [ 59.322589518385257, 35.732304227596792 ], [ 59.281767630891139, 35.745329917127691 ], [ 59.279306953682827, 35.745101671721315 ], [ 59.279205370411269, 35.745099910865576 ], [ 59.261472586872628, 35.746123618643168 ], [ 59.261436344140577, 35.746126689822667 ], [ 59.246377279512444, 35.74781247189911 ], [ 59.236511921673895, 35.748835868637279 ], [ 59.236342917128404, 35.748876469044347 ], [ 59.236198170989375, 35.748958360629338 ], [ 59.236092390249375, 35.749073222825366 ], [ 59.232081415240067, 35.755293667137103 ], [ 59.232025436532091, 35.755429339723698 ], [ 59.231088706694578, 35.760016736635571 ], [ 59.231081766605357, 35.760070405791723 ], [ 59.230847113577134, 35.764309021725595 ], [ 59.230255949474596, 35.767110034551472 ], [ 59.230248336173005, 35.767203318973273 ], [ 59.23057407776998, 35.774276136524989 ], [ 59.230564482466264, 35.77776611515074 ], [ 59.229187577445828, 35.781220326904673 ], [ 59.226070337457145, 35.784501209818707 ], [ 59.220539640968404, 35.786757846468895 ], [ 59.220370559024154, 35.786864499297323 ], [ 59.22026377347018, 35.787015443694955 ], [ 59.216693939616661, 35.795552344721727 ], [ 59.216685696281054, 35.795573793855141 ], [ 59.212603108620414, 35.80720491043116 ], [ 59.198222944776937, 35.811954305447628 ], [ 59.198213863934029, 35.811957380734 ], [ 59.184575754388497, 35.816691220953736 ], [ 59.178405858360016, 35.812936034706418 ], [ 59.178378549637287, 35.812920434762098 ], [ 59.17278850062403, 35.809927536928228 ], [ 59.17264704899921, 35.809873328718609 ], [ 59.1724926278848, 35.809853518526587 ], [ 59.172337568894605, 35.809869688342339 ], [ 59.164888887784883, 35.811542741375334 ], [ 59.158825463793022, 35.81285140344918 ], [ 59.150956421485326, 35.811687554784626 ], [ 59.150944242391617, 35.811685867240769 ], [ 59.144495529877155, 35.810852384234309 ], [ 59.144326086735283, 35.810851881610773 ], [ 59.144164405310576, 35.810893179187282 ], [ 59.144025654451383, 35.810972402465524 ], [ 59.143922851773723, 35.811082118767814 ], [ 59.143865642368795, 35.811212034538741 ], [ 59.141977129006072, 35.819182308924297 ], [ 59.13931188571803, 35.829215464382685 ], [ 59.115286823613879, 35.830877094552413 ], [ 59.089185530765953, 35.832204850878121 ], [ 59.089024242207635, 35.832233103655078 ], [ 59.088880350057231, 35.832298821319689 ], [ 59.088766644477481, 35.832396162449292 ], [ 59.088693232546575, 35.832516474685484 ], [ 59.087385451195935, 35.835823580173056 ], [ 59.087365941271344, 35.835889612399654 ], [ 59.085722098242748, 35.844148093038989 ], [ 59.078887865768351, 35.852408627167861 ], [ 59.066876680393513, 35.863379206310334 ], [ 59.06678712706735, 35.863490502606581 ], [ 59.066741403440552, 35.863618234855778 ], [ 59.066743495591012, 35.86375126826767 ], [ 59.06679322137142, 35.863878005878711 ], [ 59.069966553519002, 35.86912677393881 ], [ 59.071839048016351, 35.872899539727996 ], [ 59.067892133103221, 35.90652648355772 ], [ 59.06788993321959, 35.906584403012403 ], [ 59.068119872492467, 35.912173772753135 ], [ 59.068177357840668, 35.912359102579181 ], [ 59.075793290821011, 35.92483399796798 ], [ 59.075834898215845, 35.924891136845083 ], [ 59.079173079449873, 35.928788324244678 ], [ 59.079222181035497, 35.928837797829907 ], [ 59.083819011118905, 35.932852902941768 ], [ 59.08837958963057, 35.9370485958788 ], [ 59.087542836530588, 35.94104977361544 ], [ 59.08753706788481, 35.941164282947391 ], [ 59.087926946291255, 35.944817245268361 ], [ 59.087973352185884, 35.944962603240363 ], [ 59.08807592392116, 35.945087487919359 ], [ 59.088223268581736, 35.945178027765074 ], [ 59.105171142666315, 35.952345543549974 ], [ 59.10530333074788, 35.952385034843473 ], [ 59.10544349324978, 35.952396159915395 ], [ 59.116744608518367, 35.952119036748186 ], [ 59.127322506918084, 35.954665948962315 ], [ 59.127386247825505, 35.954678016224065 ], [ 59.141077729029014, 35.956584505417979 ], [ 59.139914607634488, 35.958272668221333 ], [ 59.137811034780043, 35.960518658657861 ], [ 59.137728936248088, 35.960642615772294 ], [ 59.135864980151389, 35.964966501761197 ], [ 59.135857941495651, 35.964983961257033 ], [ 59.134361975875244, 35.968967184011156 ], [ 59.132695009268524, 35.973405266328285 ], [ 59.132671083547876, 35.973550019905844 ], [ 59.132705373728008, 35.973693389788018 ], [ 59.135460151102208, 35.979736975259428 ], [ 59.136691339611339, 35.983260784459404 ], [ 59.136761321940646, 35.983385128006894 ], [ 59.136873970503018, 35.983486685919132 ], [ 59.137018911974273, 35.983556106046315 ], [ 59.137182799162261, 35.983586995691489 ], [ 59.159477887132212, 35.984956653984966 ], [ 59.17198010835024, 35.987849550243943 ], [ 59.175384694756623, 35.988662446600664 ], [ 59.192430346653374, 35.995056306255535 ], [ 59.195782969493898, 36.000143214358779 ], [ 59.198831617828297, 36.004846884282358 ], [ 59.198948516731598, 36.004969780493624 ], [ 59.199109829165515, 36.005053121393338 ], [ 59.199296385796302, 36.005087003244 ], [ 59.19948601728963, 36.005067399728595 ], [ 59.207412653876169, 36.003076354344174 ], [ 59.20874333844791, 36.006951742468623 ], [ 59.208794775367153, 36.007052446979266 ], [ 59.208874478159906, 36.007140164008867 ], [ 59.218371585583668, 36.015302595748757 ], [ 59.218391597624027, 36.015318934553221 ], [ 59.229224244602179, 36.023720556369284 ], [ 59.229226988385633, 36.023722669568613 ], [ 59.242879092869501, 36.034163437004565 ], [ 59.242927387678712, 36.03419636603185 ], [ 59.258356751348799, 36.043553774541394 ], [ 59.278067848843932, 36.055895701255324 ], [ 59.28256992157911, 36.059337923742056 ], [ 59.282656686787142, 36.059392202476801 ], [ 59.294280549822794, 36.06527702321295 ], [ 59.298947337237045, 36.06834204655641 ], [ 59.307942821522893, 36.078235096108308 ], [ 59.313220896230831, 36.085226054713068 ], [ 59.313928373460527, 36.088084794017405 ], [ 59.31363731464738, 36.091215702224162 ], [ 59.313636875614925, 36.091220811675463 ], [ 59.313340064500366, 36.094982986731502 ], [ 59.313358271802564, 36.095129670449211 ], [ 59.313433846768433, 36.095263731380363 ], [ 59.318279172905321, 36.10109289745953 ], [ 59.314007646602128, 36.109954485226531 ], [ 59.313970331274767, 36.110093843166851 ], [ 59.313988560518062, 36.11023568343586 ], [ 59.314060508264248, 36.110365795339845 ], [ 59.314178966411369, 36.110471143164617 ], [ 59.324361995660482, 36.117046495402164 ], [ 59.323303016249319, 36.118757368385225 ], [ 59.323251681476513, 36.118884655658334 ], [ 59.32324873165792, 36.119018562633144 ], [ 59.323294427687273, 36.119147256951088 ], [ 59.323384731947435, 36.119259366803611 ], [ 59.32351166501595, 36.119344985793695 ], [ 59.323664010716783, 36.119396548321482 ], [ 59.323828307228375, 36.119409498131546 ], [ 59.32664777728376, 36.119289626221835 ], [ 59.326768780879753, 36.119273479320924 ], [ 59.328874107299768, 36.118793991907204 ], [ 59.328931886933447, 36.118778004191547 ], [ 59.345652514329132, 36.113300199800555 ], [ 59.354676517695246, 36.110983613036872 ], [ 59.356770001536248, 36.111040943494345 ], [ 59.356953673922312, 36.111020859096008 ], [ 59.358058735232646, 36.110741871762812 ], [ 59.364650464842164, 36.110771453282091 ], [ 59.364725318819801, 36.110767676981276 ], [ 59.382272807206071, 36.108909442944991 ], [ 59.382275207420875, 36.108909184266942 ], [ 59.394851271065242, 36.107530494089652 ], [ 59.412175019330718, 36.105642335846667 ], [ 59.426822297443458, 36.104083257261102 ], [ 59.444185861016393, 36.109260241426099 ], [ 59.444201325164457, 36.10926464158274 ], [ 59.455256608140019, 36.112261748557515 ], [ 59.455272323528682, 36.112265798661817 ], [ 59.460784550048473, 36.113613454163577 ], [ 59.467352981203653, 36.118684448451631 ], [ 59.468876513279504, 36.120303799447598 ], [ 59.466271104847685, 36.124456328183918 ], [ 59.466212044013545, 36.124629084147855 ], [ 59.465265966100404, 36.135535753347192 ], [ 59.465276567248011, 36.135660411841208 ], [ 59.466352384867328, 36.139794968018215 ], [ 59.466428610348302, 36.139945530091147 ], [ 59.4676157442331, 36.14144350657353 ], [ 59.467712525571692, 36.141535578699823 ], [ 59.467836026896585, 36.141603438178933 ], [ 59.490444117711974, 36.150701963721147 ], [ 59.49338726979056, 36.155628760924174 ], [ 59.497937189763505, 36.166797358770857 ], [ 59.497024117625578, 36.173077103709659 ], [ 59.497028267738898, 36.173205888752733 ], [ 59.497077204607344, 36.173328455623853 ], [ 59.502099319759388, 36.181617729549906 ], [ 59.502197780662847, 36.181731565054967 ], [ 59.502334369058801, 36.18181564013954 ], [ 59.502496075628819, 36.181861947050152 ], [ 59.502667498564925, 36.181866075269106 ], [ 59.502832310581248, 36.181827631612194 ], [ 59.502974814091026, 36.181750277675597 ], [ 59.503081436390737, 36.181641381066022 ], [ 59.503352264431051, 36.181254327704949 ], [ 59.506122040829133, 36.180777182908081 ], [ 59.506724659666176, 36.180782710405119 ], [ 59.513643373843152, 36.184184787018985 ], [ 59.513794967132945, 36.184236275693166 ], [ 59.513958508717373, 36.184249564703904 ], [ 59.514612810965303, 36.184223803615033 ], [ 59.526620965775599, 36.187553079073254 ], [ 59.52914248660926, 36.188629610918618 ], [ 59.529307598942381, 36.188675040289219 ], [ 59.529481950261363, 36.188676759937309 ], [ 59.534211981326443, 36.188115356648261 ], [ 59.534351802105981, 36.188083187371333 ], [ 59.534476551194757, 36.188022729923425 ], [ 59.535190249224904, 36.187564391947866 ], [ 59.535802632394827, 36.187558677446937 ], [ 59.535971413774639, 36.187535739806663 ], [ 59.536123582183535, 36.187472258674816 ], [ 59.536244707015904, 36.187374254198332 ], [ 59.536323301753178, 36.187251020461787 ], [ 59.536329735923665, 36.187220262142006 ] ] ] ] } },
{ "type": "Feature", "properties": { "ostan": "خراسان رضوی", "shahrestan": "مشهد", "bakhsh": "رضویه" }, "geometry": { "type": "MultiPolygon", "coordinates": [ [ [ [ 59.673480796272358, 36.014241810490326 ], [ 59.673313574050098, 36.014260948064084 ], [ 59.673152140172732, 36.014327168234786 ], [ 59.673025520746094, 36.014432070251132 ], [ 59.656564993544144, 36.033486967966574 ], [ 59.656485253974758, 36.033623223142463 ], [ 59.656465373491223, 36.033773221621964 ], [ 59.658446199274962, 36.060101439815696 ], [ 59.658504164838064, 36.060276109433829 ], [ 59.664818584938324, 36.070484704894575 ], [ 59.664912041322438, 36.070592695737972 ], [ 59.66504003825959, 36.070674062103365 ], [ 59.668368475256536, 36.072211399864997 ], [ 59.688721912432726, 36.102814944338405 ], [ 59.688746239748028, 36.102848036913365 ], [ 59.701877933061205, 36.119085144466546 ], [ 59.702770536616597, 36.122209663825011 ], [ 59.70307735229197, 36.143878203552227 ], [ 59.695301486842872, 36.15396388462738 ], [ 59.695233644069923, 36.154093226798224 ], [ 59.695218260097704, 36.154233229874514 ], [ 59.695256833050522, 36.15437026256911 ], [ 59.695345607544944, 36.154490982737059 ], [ 59.709725970273631, 36.168491557298481 ], [ 59.662995076925647, 36.200436230588217 ], [ 59.662882756609314, 36.200540890748222 ], [ 59.662815050790179, 36.200668287262111 ], [ 59.662798379699794, 36.20080634013857 ], [ 59.662834324398204, 36.200941958862643 ], [ 59.662919476755754, 36.201062283667909 ], [ 59.663045762532434, 36.201155904952323 ], [ 59.663201206952323, 36.201213945202014 ], [ 59.663692092653903, 36.201327111951237 ], [ 59.663922389026091, 36.201339812397933 ], [ 59.672465439821366, 36.200354976543082 ], [ 59.676197082589177, 36.20129599852023 ], [ 59.678956989281261, 36.203232593665 ], [ 59.679100590853622, 36.203305633692921 ], [ 59.682656307616938, 36.204548953961734 ], [ 59.68442160972436, 36.206828055438379 ], [ 59.684538026077632, 36.206935613661948 ], [ 59.692936657491259, 36.212566868003194 ], [ 59.666481533103095, 36.243688102994156 ], [ 59.666407683623866, 36.243811945604129 ], [ 59.666383407296742, 36.243948066439501 ], [ 59.666410967406129, 36.244083776386731 ], [ 59.666487795052269, 36.244206424572127 ], [ 59.666606728534553, 36.244304577687458 ], [ 59.676016541622076, 36.24999619275021 ], [ 59.676177725952599, 36.250063740635206 ], [ 59.67635717735876, 36.250085659118383 ], [ 59.676535786204099, 36.250059614130841 ], [ 59.676694532590659, 36.249988379194392 ], [ 59.681764963304829, 36.246735667555569 ], [ 59.693548779364491, 36.255753704773994 ], [ 59.69368593384246, 36.255830742853391 ], [ 59.693845134533333, 36.255871352120216 ], [ 59.694012043098041, 36.255871875124413 ], [ 59.694171626963936, 36.255832264772195 ], [ 59.704943401056603, 36.25163878935134 ], [ 59.704982221181709, 36.251622113982656 ], [ 59.712758283286753, 36.247955564993077 ], [ 59.712886689506128, 36.247872188824374 ], [ 59.712979346803365, 36.247762022588482 ], [ 59.713028140730422, 36.247634714278796 ], [ 59.713028798318526, 36.247501413081913 ], [ 59.712981262217454, 36.247373792961916 ], [ 59.71271519289742, 36.246917822235659 ], [ 59.713786578612712, 36.246468510522874 ], [ 59.713935128644849, 36.246377836536254 ], [ 59.714038453601269, 36.246252553911816 ], [ 59.714084993772289, 36.246106679220624 ], [ 59.714069542613053, 36.245956532779431 ], [ 59.713993829111232, 36.245818912732318 ], [ 59.71058895874323, 36.241674901358131 ], [ 59.710473053565629, 36.241572496302062 ], [ 59.710324137604523, 36.241503574432961 ], [ 59.710156377065474, 36.241474692191488 ], [ 59.709985730733322, 36.241488597107754 ], [ 59.709828431908598, 36.241543966441661 ], [ 59.709631061935241, 36.24164526583251 ], [ 59.708563135280698, 36.240187656018939 ], [ 59.714393842809237, 36.236489265641801 ], [ 59.715427466396726, 36.236522614203125 ], [ 59.721303269363922, 36.244966634054457 ], [ 59.721414359269204, 36.245079275526301 ], [ 59.7215636934001, 36.245157716962069 ], [ 59.721735973586824, 36.245193922588115 ], [ 59.721913550895081, 36.245184183393555 ], [ 59.753614326804055, 36.239212364474952 ], [ 59.781433931620093, 36.243977837290274 ], [ 59.809848558560134, 36.252645848134378 ], [ 59.830874843445471, 36.260824220601371 ], [ 59.831056533855538, 36.260866050466532 ], [ 59.841456888203382, 36.26176456313393 ], [ 59.841698201750319, 36.261742204281809 ], [ 59.871129576743314, 36.253465703825128 ], [ 59.881524824558518, 36.251789111822795 ], [ 59.894446332329338, 36.253210074255072 ], [ 59.893351862750755, 36.257005024940902 ], [ 59.883576548923109, 36.282344284677045 ], [ 59.883551485854269, 36.282492116561713 ], [ 59.883587454312597, 36.282638465370887 ], [ 59.891263773887054, 36.299005107318358 ], [ 59.891392561613564, 36.299165349933162 ], [ 59.911078844615886, 36.314929992915211 ], [ 59.911227153936501, 36.315014953265539 ], [ 59.930849427092575, 36.322722546450549 ], [ 59.935472745182835, 36.331544476283305 ], [ 59.935579798997239, 36.331677257253823 ], [ 59.935737084119054, 36.331771797627596 ], [ 59.953341099855045, 36.338862432871863 ], [ 59.959714516520009, 36.358211489848721 ], [ 59.959786885659639, 36.358342437083429 ], [ 59.979349273669818, 36.382468608405397 ], [ 59.979498096645607, 36.382591963063213 ], [ 60.002951499520769, 36.39570878220362 ], [ 60.020094688174957, 36.413645861606547 ], [ 60.015662017068159, 36.445940423773635 ], [ 60.015688861612318, 36.446136401532982 ], [ 60.022127052921945, 36.461273751875254 ], [ 60.022247362455829, 36.461435221385031 ], [ 60.046167393141289, 36.482060600954213 ], [ 60.049001125799464, 36.487532199194504 ], [ 60.049095747092117, 36.487654821663043 ], [ 60.049233586655333, 36.487746938840026 ], [ 60.049400457492553, 36.487799069591532 ], [ 60.049579184445307, 36.48780584836981 ], [ 60.049751372015017, 36.487766577482475 ], [ 60.049899297813631, 36.487685298900359 ], [ 60.049953535143857, 36.487643790317144 ], [ 60.072269803497107, 36.473859244643172 ], [ 60.09563599573486, 36.466961500446253 ], [ 60.095780034757418, 36.466898228503219 ], [ 60.095895058848129, 36.466803850955202 ], [ 60.109123337912273, 36.452145258819044 ], [ 60.122193358985719, 36.449972139203005 ], [ 60.122391176612005, 36.449905205920473 ], [ 60.149833155639016, 36.435048678908863 ], [ 60.17138835887701, 36.424499767563915 ], [ 60.20018283385442, 36.413539714201654 ], [ 60.20770669762576, 36.411818202471245 ], [ 60.207873395759876, 36.411754407577682 ], [ 60.246084495692109, 36.390225403713806 ], [ 60.24617549965356, 36.390161192769114 ], [ 60.283949039489535, 36.357003672233326 ], [ 60.294991382946272, 36.352379225532395 ], [ 60.295064133867399, 36.352342759638198 ], [ 60.312426065322249, 36.342063843450333 ], [ 60.3124698221567, 36.342035067361998 ], [ 60.321818541259255, 36.335221553035218 ], [ 60.321876141126353, 36.335172763634191 ], [ 60.348379240635744, 36.309047248032662 ], [ 60.36269405759267, 36.301911577153135 ], [ 60.362786442752203, 36.301853880616015 ], [ 60.384577114790105, 36.285009288659545 ], [ 60.384644142416754, 36.284946973339117 ], [ 60.392696300678693, 36.275901947777207 ], [ 60.400884157860524, 36.267541990852543 ], [ 60.410799814655682, 36.257762009457402 ], [ 60.410898577446545, 36.257616156627726 ], [ 60.41092521188223, 36.257451214855323 ], [ 60.410813906307709, 36.255835806351875 ], [ 60.410782859766364, 36.255710542001005 ], [ 60.410709620698299, 36.255597383535921 ], [ 60.410600086255165, 36.255505442142592 ], [ 60.395727871292216, 36.24613745811461 ], [ 60.38351999918865, 36.234918883703379 ], [ 60.383428728339013, 36.234851743955858 ], [ 60.355753634244408, 36.218631756032067 ], [ 60.355629927441761, 36.218577090957325 ], [ 60.321517867125849, 36.20778175791132 ], [ 60.321114254850357, 36.204688023514372 ], [ 60.321850365675488, 36.198807096573361 ], [ 60.321841509292646, 36.198669751095011 ], [ 60.321781916117956, 36.198540978819437 ], [ 60.321677145778231, 36.198432792820093 ], [ 60.321536972333526, 36.198355285652994 ], [ 60.309331223239013, 36.193631922477771 ], [ 60.313905252769658, 36.184999195068919 ], [ 60.321185143160854, 36.178648364332162 ], [ 60.321242418763156, 36.178589157043419 ], [ 60.325174796524465, 36.173737909362622 ], [ 60.325230763632192, 36.173648552078014 ], [ 60.330127646448688, 36.163046645507052 ], [ 60.330162313677185, 36.162909687586321 ], [ 60.330143502984832, 36.162770708995218 ], [ 60.330073028154956, 36.162643108485454 ], [ 60.319833920850861, 36.149883044063372 ], [ 60.319739678646748, 36.149793714991723 ], [ 60.319620137712839, 36.149727215380558 ], [ 60.309534211427938, 36.145568426001553 ], [ 60.316119718293656, 36.118973424156096 ], [ 60.318181896417059, 36.114550199366917 ], [ 60.328972229456674, 36.109838195114826 ], [ 60.333549116813252, 36.107994000244467 ], [ 60.333559156069093, 36.10798985116152 ], [ 60.345890872566713, 36.10276376341811 ], [ 60.345892961985101, 36.102762873181661 ], [ 60.363106527881726, 36.095388890073892 ], [ 60.363254121987758, 36.095297035098064 ], [ 60.363356017371551, 36.095170752870914 ], [ 60.366546419033043, 36.089235113688069 ], [ 60.366559932788924, 36.089207521413464 ], [ 60.368438034375366, 36.084970741856132 ], [ 60.371447925794527, 36.079441148052538 ], [ 60.389968338243044, 36.084203764760119 ], [ 60.395146557019153, 36.085817888951915 ], [ 60.395267646115393, 36.085843367482234 ], [ 60.409884372210058, 36.087522259423515 ], [ 60.409961161994246, 36.087526695712583 ], [ 60.414059474268491, 36.087531989077277 ], [ 60.419519481439863, 36.087742919220474 ], [ 60.429306546623458, 36.089019064825685 ], [ 60.435235359766885, 36.089917392289031 ], [ 60.435306553951172, 36.089924350937444 ], [ 60.438635561913422, 36.090073521944738 ], [ 60.439382211549628, 36.090371597839088 ], [ 60.439525962946796, 36.090410286238367 ], [ 60.44249150524999, 36.090856330760055 ], [ 60.44266245503659, 36.090860280875042 ], [ 60.443710963885131, 36.090752220786847 ], [ 60.449641842744413, 36.091537995483783 ], [ 60.4496530681431, 36.09153938684836 ], [ 60.454327452637578, 36.092078995481302 ], [ 60.454486008900624, 36.092078720175067 ], [ 60.454637992861421, 36.092042052367773 ], [ 60.45477098878996, 36.091971987506533 ], [ 60.454874132184578, 36.091874249267917 ], [ 60.458805007816466, 36.086839680514842 ], [ 60.471342572664611, 36.071130462405051 ], [ 60.471401603025299, 36.071031981413398 ], [ 60.471429598683279, 36.070924843170999 ], [ 60.472318865450347, 36.062657843094513 ], [ 60.47349693301112, 36.055327212211445 ], [ 60.474355159100796, 36.055089324040416 ], [ 60.475719120826916, 36.055199593152288 ], [ 60.475944428944231, 36.055180025293545 ], [ 60.477317064255935, 36.054820116658135 ], [ 60.477472524496797, 36.054755952844893 ], [ 60.477595753059397, 36.054655753899127 ], [ 60.483699988251495, 36.047811013209234 ], [ 60.497285989022124, 36.045655366866626 ], [ 60.497440254586238, 36.04561088185163 ], [ 60.497571798100395, 36.045531749323303 ], [ 60.497669150775373, 36.045424868614141 ], [ 60.497723824917145, 36.045299558298474 ], [ 60.501008530108045, 36.031600906760019 ], [ 60.508672492158588, 36.020449891644176 ], [ 60.516651493312658, 36.014739648745305 ], [ 60.51675273472123, 36.014643487567632 ], [ 60.516817041787675, 36.014528236660404 ], [ 60.516839335070479, 36.014402999693772 ], [ 60.516876353117205, 36.002999331043824 ], [ 60.51687520171982, 36.002969106934138 ], [ 60.51646910944045, 35.997862350353756 ], [ 60.516575749702334, 35.996079080201689 ], [ 60.518472732192777, 35.990707098146714 ], [ 60.529229978189406, 35.973356552923569 ], [ 60.536733049143216, 35.972325409921162 ], [ 60.568477553069918, 35.976038218883616 ], [ 60.568610184423328, 35.976040666041953 ], [ 60.568739727276089, 35.97601740730159 ], [ 60.577791699035579, 35.973435434284944 ], [ 60.577951197854802, 35.973364170062347 ], [ 60.578073667235969, 35.973254728389769 ], [ 60.578145882758832, 35.973118927109539 ], [ 60.580965275665768, 35.963871216736138 ], [ 60.580980333081442, 35.963733246770964 ], [ 60.580943086773949, 35.963598085067538 ], [ 60.580857062355477, 35.96347852469043 ], [ 60.58073040219368, 35.963385881989851 ], [ 60.580575094690602, 35.963328925540267 ], [ 60.57186780751038, 35.961374533418457 ], [ 60.560483536800866, 35.953274743315404 ], [ 60.56020479589781, 35.950454390220528 ], [ 60.559240223242824, 35.940423617931174 ], [ 60.559206055194991, 35.940299327771214 ], [ 60.559130454601316, 35.940187791076866 ], [ 60.559019470936192, 35.940097932668195 ], [ 60.543375627404792, 35.930598157250905 ], [ 60.545619790163222, 35.927208064425812 ], [ 60.545629549069261, 35.9271926149341 ], [ 60.547759199229084, 35.923654698166246 ], [ 60.547811904715566, 35.923508552348082 ], [ 60.54797009521544, 35.922398266174923 ], [ 60.552089582844431, 35.92282187689851 ], [ 60.552252105616638, 35.922819015771786 ], [ 60.552406597723405, 35.922777875793017 ], [ 60.552539734253898, 35.922702005294802 ], [ 60.552640032299152, 35.922597948096154 ], [ 60.552698841358819, 35.922474679076245 ], [ 60.552711089411375, 35.92234283007393 ], [ 60.552675720308287, 35.922213772888227 ], [ 60.548830753273755, 35.914069934305701 ], [ 60.540424501767689, 35.88524649757106 ], [ 60.5412236176834, 35.881126178750335 ], [ 60.541225381454986, 35.881116386479704 ], [ 60.541771436370695, 35.877833614789068 ], [ 60.542273165129657, 35.87749483167007 ], [ 60.542369194393252, 35.87741104539608 ], [ 60.542436127928717, 35.877310244873478 ], [ 60.548370481626563, 35.864777025042528 ], [ 60.551761246428683, 35.857877043838201 ], [ 60.555013219538637, 35.853866154667386 ], [ 60.572365614968284, 35.851284643531955 ], [ 60.572525115602943, 35.851239572587993 ], [ 60.572660479400959, 35.85115742260728 ], [ 60.572759089645324, 35.851045850529324 ], [ 60.572811755409646, 35.850915255587353 ], [ 60.574926274819376, 35.840510471310523 ], [ 60.574930985938238, 35.840392491522977 ], [ 60.574897874132937, 35.840277569598051 ], [ 60.57220291067307, 35.834480776755711 ], [ 60.577509023080985, 35.826144236544373 ], [ 60.577511154412242, 35.826140852691253 ], [ 60.584370765263316, 35.81513424394781 ], [ 60.584419584096068, 35.815019987898687 ], [ 60.58593255184666, 35.80894502213421 ], [ 60.588552822135966, 35.803018734002933 ], [ 60.5885854726397, 35.802871968118012 ], [ 60.588659547493734, 35.798183741020416 ], [ 60.589326952502674, 35.783805219012251 ], [ 60.589315948500051, 35.78369722369905 ], [ 60.589273594359362, 35.783594499069999 ], [ 60.584590491538258, 35.775586923723267 ], [ 60.591228377395296, 35.767976659179674 ], [ 60.591301819815833, 35.76785908024106 ], [ 60.591330287426203, 35.767729198994061 ], [ 60.591311335789172, 35.767598169006284 ], [ 60.585173034448303, 35.749114256324191 ], [ 60.585320406256933, 35.73942130627502 ], [ 60.585292409623072, 35.739274084124453 ], [ 60.585207016904029, 35.739142370570654 ], [ 60.585073578185828, 35.739040587236616 ], [ 60.578053622911888, 35.735241859034744 ], [ 60.567507516825593, 35.721052995937193 ], [ 60.567394173028816, 35.720944157158861 ], [ 60.567244737200241, 35.720869733972272 ], [ 60.567074239334076, 35.720837211710254 ], [ 60.553496418862977, 35.720054121799372 ], [ 60.55346135502203, 35.720053009126907 ], [ 60.543148147034046, 35.719992768136024 ], [ 60.542912692953912, 35.720034234569937 ], [ 60.532673660777583, 35.723889353157986 ], [ 60.532485883811226, 35.724005108555573 ], [ 60.520088582004057, 35.735795820359037 ], [ 60.518301933107011, 35.735956956705621 ], [ 60.518142906167505, 35.735991406223434 ], [ 60.51800338704917, 35.736062527791709 ], [ 60.517895761935435, 35.73616400744919 ], [ 60.51782958565331, 35.736286836095474 ], [ 60.515124502718535, 35.744433654072424 ], [ 60.513410459074329, 35.744385679246243 ], [ 60.513264492590373, 35.744397481337707 ], [ 60.513127484619453, 35.744440190825657 ], [ 60.501329910816985, 35.749673679640061 ], [ 60.4811334557781, 35.748123962802104 ], [ 60.451345470893571, 35.74223017945009 ], [ 60.45129151790853, 35.742221788111856 ], [ 60.4386040454688, 35.740776469855831 ], [ 60.438553719627222, 35.740772638009176 ], [ 60.433879388023207, 35.740591970419366 ], [ 60.433650337806633, 35.740622944431216 ], [ 60.407830698996094, 35.748932992765226 ], [ 60.366949303573733, 35.761998583967468 ], [ 60.330222110126542, 35.773737950852663 ], [ 60.330086413065743, 35.773800556321433 ], [ 60.318632483715653, 35.78099470559237 ], [ 60.302733307850396, 35.787173617776993 ], [ 60.302674566359173, 35.787200123076936 ], [ 60.300003511139657, 35.78858441031975 ], [ 60.299905057121066, 35.78864947010107 ], [ 60.294340341232562, 35.793283652701646 ], [ 60.294270348649484, 35.793355233962679 ], [ 60.279178736033316, 35.812494737654831 ], [ 60.255498697117538, 35.828875468006508 ], [ 60.255385643427118, 35.828982761206518 ], [ 60.255319010938749, 35.829113312391129 ], [ 60.249743992456295, 35.847963947040583 ], [ 60.239128176001344, 35.851784979623844 ], [ 60.238924080569696, 35.851803360711365 ], [ 60.24034033237804, 35.843991190175174 ], [ 60.240336865381778, 35.843842787207691 ], [ 60.240274333024793, 35.843703362855628 ], [ 60.240159528807062, 35.843588063534533 ], [ 60.240004924651807, 35.843509414778026 ], [ 60.239827315985572, 35.843475960568057 ], [ 60.232734946721365, 35.843118497596578 ], [ 60.227733304481625, 35.841835071425081 ], [ 60.214750593717206, 35.83388172605882 ], [ 60.214570237544855, 35.83380861370361 ], [ 60.214369688202922, 35.83379296006099 ], [ 60.200903159739561, 35.834755374939775 ], [ 60.200744646809277, 35.834786331234689 ], [ 60.200604101693358, 35.834853572148269 ], [ 60.200493734122972, 35.83495125622558 ], [ 60.188871921663448, 35.84890495996747 ], [ 60.1869945215782, 35.848822704826127 ], [ 60.188519158057431, 35.828132821513663 ], [ 60.188504682549997, 35.828000077184811 ], [ 60.188443136416254, 35.827876594899571 ], [ 60.188339909270155, 35.827773187649953 ], [ 60.188204040514243, 35.827698910481836 ], [ 60.186750428882732, 35.827137692992167 ], [ 60.178219557652888, 35.819147348700703 ], [ 60.178017075443144, 35.819027851165764 ], [ 60.155711158028247, 35.811366007618197 ], [ 60.152398010408696, 35.809873340697095 ], [ 60.152238072556052, 35.809825694276135 ], [ 60.152067919702098, 35.809819956860309 ], [ 60.127418777397629, 35.81210100063462 ], [ 60.109373155337607, 35.810661584031813 ], [ 60.10919261790567, 35.810671400479656 ], [ 60.094706446078831, 35.813445915556578 ], [ 60.086165687142383, 35.807282803171013 ], [ 60.086033943495444, 35.807212198528198 ], [ 60.085883089554024, 35.80717476203246 ], [ 60.085725397559912, 35.807173539217125 ], [ 60.085573696022415, 35.807208629570653 ], [ 60.083509188935572, 35.807959167710202 ], [ 60.051329210078023, 35.809998905181601 ], [ 60.051241030330267, 35.810010373682964 ], [ 60.047928657372935, 35.810668217561421 ], [ 60.04327082267956, 35.806399440456119 ], [ 60.037763888466372, 35.801304837429015 ], [ 60.03763965109286, 35.801219370266246 ], [ 60.037490266160603, 35.801167043513047 ], [ 60.037328656103092, 35.80115238365606 ], [ 60.037168800833982, 35.801176658842451 ], [ 60.035239709343749, 35.801718243152621 ], [ 60.03514774853047, 35.801751986789377 ], [ 60.026392628099529, 35.80578366859072 ], [ 60.026315495516862, 35.805826563843205 ], [ 60.023543481322811, 35.807665904493035 ], [ 60.011111079000763, 35.790957786912003 ], [ 60.010997216378243, 35.790848661674637 ], [ 60.010847060908667, 35.79077417979817 ], [ 60.010675797064287, 35.790741873239043 ], [ 60.010500743803817, 35.790755008991383 ], [ 60.003600535079997, 35.792199414168003 ], [ 60.003447732606929, 35.792252373708848 ], [ 60.003321126759886, 35.792339914926991 ], [ 59.974319230919889, 35.819469617271544 ], [ 59.943203252976119, 35.845838620717423 ], [ 59.943199500364791, 35.84584183081499 ], [ 59.932181574537012, 35.855358642873746 ], [ 59.908001844382142, 35.876185722857272 ], [ 59.864457065996234, 35.910620119189453 ], [ 59.864378947873917, 35.910697329759316 ], [ 59.859036799070658, 35.91736742634432 ], [ 59.859013190838937, 35.917399778369024 ], [ 59.855154962929944, 35.923228143638319 ], [ 59.855089004200586, 35.923428493896481 ], [ 59.854793379014438, 35.931625851071956 ], [ 59.851981228000163, 35.944268044074875 ], [ 59.851973301989339, 35.944374202005193 ], [ 59.851996205803815, 35.944478911949531 ], [ 59.859118925391748, 35.963578354429998 ], [ 59.859175566398072, 35.963681438259101 ], [ 59.862953244736445, 35.968738156198164 ], [ 59.86295322726324, 35.971254236363912 ], [ 59.862980077319811, 35.971392751020282 ], [ 59.863058027107343, 35.971517841727398 ], [ 59.86317952229674, 35.971617385264594 ], [ 59.863332788208396, 35.971681734292844 ], [ 59.869568341202438, 35.973363897438738 ], [ 59.869043314535396, 35.976231796844324 ], [ 59.869043484087662, 35.976365312347184 ], [ 59.869091798400859, 35.976492921784079 ], [ 59.869184012542043, 35.976603412731876 ], [ 59.869312024221472, 35.97668707684781 ], [ 59.869464585671672, 35.976736562921616 ], [ 59.879750067990599, 35.978701856083973 ], [ 59.880388351267911, 35.986463460997719 ], [ 59.872379904611172, 35.997712015589919 ], [ 59.859605177259674, 35.998171352362569 ], [ 59.855180931462336, 35.993783640566164 ], [ 59.85503385197967, 35.993681174819173 ], [ 59.854852364648501, 35.993626100583157 ], [ 59.84520691717389, 35.99218536180679 ], [ 59.845027790901256, 35.992182523709516 ], [ 59.844856908357571, 35.992226269013074 ], [ 59.812359104340103, 36.005552078042115 ], [ 59.812234759533709, 36.005621770152935 ], [ 59.812138184462277, 36.005716148449793 ], [ 59.807537998246346, 36.011718045259336 ], [ 59.807502019325234, 36.011773154441194 ], [ 59.803333556135414, 36.019389053411722 ], [ 59.791278119102103, 36.017628684609406 ], [ 59.791230177444199, 36.01762342347574 ], [ 59.77782857226785, 36.016633218261767 ], [ 59.777669705550792, 36.01664009027472 ], [ 59.777519780445786, 36.016683329147874 ], [ 59.777384264743539, 36.016741358359354 ], [ 59.769402650885084, 36.015306702278203 ], [ 59.769320968645182, 36.015297127884843 ], [ 59.764029885161818, 36.015000808723855 ], [ 59.763994195463077, 36.014999745854794 ], [ 59.751707215952834, 36.014954910239176 ], [ 59.749695591086343, 36.014661733874568 ], [ 59.749575538464597, 36.0146550149653 ], [ 59.733836944723038, 36.015165123683481 ], [ 59.714292289032471, 36.015785515909457 ], [ 59.712710527833444, 36.015505194780708 ], [ 59.712639391488331, 36.015496468399022 ], [ 59.709224539579232, 36.015260196719382 ], [ 59.707710953377273, 36.015153330174584 ], [ 59.707710018410417, 36.015153264802954 ], [ 59.682418546280033, 36.013399712766407 ], [ 59.682370531661647, 36.013398076733097 ], [ 59.679115193697335, 36.013401826888149 ], [ 59.678946549972551, 36.013423370759718 ], [ 59.678072566779321, 36.013651228751598 ], [ 59.677735789172168, 36.013476431719035 ], [ 59.677597239477819, 36.013424729539544 ], [ 59.677446595164291, 36.013405640546416 ], [ 59.677295246694094, 36.013420608097391 ], [ 59.673480796272358, 36.014241810490326 ] ] ] ] } }
]
}
