{
"type": "FeatureCollection",
"name": "Shahrestan",
"crs": { "type": "name", "properties": { "name": "urn:ogc:def:crs:OGC:1.3:CRS84" } },
"features": [
{ "type": "Feature", "properties": { "ostan": "خراسان رضوی", "shahrestan": "مشهد" }, "geometry": { "type": "MultiPolygon", "coordinates": [ [ [ [ 59.396600502514715, 36.93806846463476 ], [ 59.401305488359796, 36.93793732856934 ], [ 59.404018941401318, 36.938833203149564 ], [ 59.409035171469121, 36.943681504209493 ], [ 59.410472663047045, 36.945939186510024 ], [ 59.415187419873277, 36.947503853584124 ], [ 59.427452310646231, 36.947569074010381 ], [ 59.432170932281771, 36.949813402573888 ], [ 59.435897942238448, 36.95330806297958 ], [ 59.445619712701351, 36.957454264254139 ], [ 59.453761927020182, 36.959570783250577 ], [ 59.46403287490817, 36.959754505950833 ], [ 59.474877258361573, 36.960499903887069 ], [ 59.488582716081979, 36.962364928342005 ], [ 59.500195448441588, 36.965321435722295 ], [ 59.503083877870182, 36.965278153815305 ], [ 59.504508668629832, 36.965403736817876 ], [ 59.508281853527542, 36.959863238440875 ], [ 59.517041325326588, 36.954591625225 ], [ 59.518625382767588, 36.953242470728036 ], [ 59.519914187280818, 36.95279847356305 ], [ 59.529205642386884, 36.950714021623988 ], [ 59.540262764847071, 36.94375636458193 ], [ 59.563962170071527, 36.927801104583516 ], [ 59.565972912142826, 36.926453437080163 ], [ 59.570021783425503, 36.921141690486031 ], [ 59.578680504793816, 36.911316767587927 ], [ 59.587277028892125, 36.906951573561145 ], [ 59.597124424161812, 36.905435638547146 ], [ 59.608118528322343, 36.903245000071408 ], [ 59.62125446748756, 36.900501701250185 ], [ 59.625705380491276, 36.897238515009953 ], [ 59.627155564290391, 36.894748636115679 ], [ 59.629638174191228, 36.888854308365467 ], [ 59.631370733763724, 36.886592472453501 ], [ 59.638278098287657, 36.879708246894396 ], [ 59.646655877994931, 36.868172481022661 ], [ 59.650413254543082, 36.862742894262155 ], [ 59.652014762498716, 36.859231027395765 ], [ 59.660933374503756, 36.850086208842704 ], [ 59.665289696878041, 36.841477413944709 ], [ 59.673416778182741, 36.831088341178123 ], [ 59.682913886637536, 36.826099664800438 ], [ 59.688404402462965, 36.822179762315024 ], [ 59.693866513376456, 36.81541424412584 ], [ 59.705469519217672, 36.80281487449637 ], [ 59.728470328756629, 36.79319001027433 ], [ 59.731775445270067, 36.793389626791267 ], [ 59.735477365194207, 36.793072916063664 ], [ 59.746574191748579, 36.791288659481374 ], [ 59.751619530615194, 36.790575640768317 ], [ 59.757569318904352, 36.788930953997529 ], [ 59.787085295001077, 36.783207392180842 ], [ 59.792279026187288, 36.775362994179879 ], [ 59.804892373353816, 36.766804553497138 ], [ 59.818396074437992, 36.748139085492049 ], [ 59.821957490108524, 36.742669361969696 ], [ 59.837091145196865, 36.718492741719437 ], [ 59.846145438204346, 36.712103081769243 ], [ 59.863508107517383, 36.703940456111873 ], [ 59.899566673262569, 36.687355706743787 ], [ 59.931025845019072, 36.66379070840911 ], [ 59.943490799865991, 36.650457816555537 ], [ 59.976137110179366, 36.630811403688767 ], [ 59.982009435495428, 36.624141060278731 ], [ 59.978214602653836, 36.608420293804713 ], [ 60.002105766110432, 36.583401259292657 ], [ 60.006260751059415, 36.567074945687352 ], [ 60.005735682409089, 36.562611406618821 ], [ 60.006396098991118, 36.54942216156735 ], [ 60.005963966420204, 36.539181143250808 ], [ 60.008486635853501, 36.534054264075735 ], [ 60.009080205131916, 36.526542176121517 ], [ 60.01531268255539, 36.521652965071901 ], [ 60.019467667504344, 36.519983407604769 ], [ 60.024251606202803, 36.511515340878951 ], [ 60.025894734482137, 36.506868673804142 ], [ 60.028800211465111, 36.50314731915153 ], [ 60.032092750666166, 36.500688910300717 ], [ 60.049591308384407, 36.487300531450792 ], [ 60.071998548644935, 36.473459828826762 ], [ 60.095444535142718, 36.466538550468726 ], [ 60.108799843907271, 36.451739261846988 ], [ 60.122080956512029, 36.44953106135079 ], [ 60.149533535639172, 36.43466883393576 ], [ 60.171124618141874, 36.424102387201927 ], [ 60.199986924305271, 36.413116533823505 ], [ 60.207554932605191, 36.411384926038636 ], [ 60.245765954903725, 36.389856027807276 ], [ 60.283605996403303, 36.356640266308546 ], [ 60.294735420373769, 36.351979366888052 ], [ 60.312097321767709, 36.34170049996289 ], [ 60.321446037902881, 36.334887014908816 ], [ 60.348008263112391, 36.308703344597163 ], [ 60.362402318114185, 36.301528201234497 ], [ 60.384192993373532, 36.284683679099999 ], [ 60.392252668455534, 36.275630271203561 ], [ 60.400451448664143, 36.267259213629458 ], [ 60.410370135426895, 36.257476301555087 ], [ 60.410258841187193, 36.255860891933096 ], [ 60.395345413066764, 36.246466922322007 ], [ 60.383103046699262, 36.235216606681348 ], [ 60.355427879092701, 36.218996547300002 ], [ 60.321000860944068, 36.208101482769919 ], [ 60.320555683985248, 36.204688980281219 ], [ 60.321297645583279, 36.198761648653281 ], [ 60.308610102256949, 36.19385180182897 ], [ 60.313432852644141, 36.184749808052189 ], [ 60.320778272464658, 36.178341849069106 ], [ 60.324710668934209, 36.173490615652554 ], [ 60.329607615481223, 36.16288872702075 ], [ 60.319368545428397, 36.150128620883017 ], [ 60.30890688689616, 36.145814875987945 ], [ 60.315584541278447, 36.118848595807627 ], [ 60.31773622991274, 36.114233437307128 ], [ 60.328717261563582, 36.109438180137047 ], [ 60.333302310745516, 36.107590700561651 ], [ 60.345633985998674, 36.102364641412187 ], [ 60.362847495072998, 36.094990698501896 ], [ 60.36603792994454, 36.089055071097491 ], [ 60.367922698034889, 36.084803317050245 ], [ 60.371141500252975, 36.078889969952805 ], [ 60.390151681880525, 36.083778581536968 ], [ 60.395345413066742, 36.085397542132199 ], [ 60.409962056547954, 36.087076429016101 ], [ 60.414073111347946, 36.087081739881711 ], [ 60.419576847006063, 36.08729436061757 ], [ 60.429401450416371, 36.088575404863391 ], [ 60.435337143200613, 36.08947477665123 ], [ 60.438778985493897, 36.089629003134704 ], [ 60.439627052659411, 36.089967567161672 ], [ 60.442592578452761, 36.09041361007462 ], [ 60.443720922386056, 36.090297322094301 ], [ 60.449731198202407, 36.091093619937162 ], [ 60.454405556269997, 36.091633226956532 ], [ 60.458337952739576, 36.08659675070799 ], [ 60.470877103746297, 36.07088566859187 ], [ 60.471767457663937, 36.062609103722131 ], [ 60.472991694300681, 36.054991495651322 ], [ 60.474290127097241, 36.054631590413877 ], [ 60.475774050293296, 36.05475155900924 ], [ 60.477146679249657, 36.054391652674589 ], [ 60.483379156673124, 36.047403145127838 ], [ 60.49717964239651, 36.045213485073219 ], [ 60.500481371507739, 36.031444227281426 ], [ 60.508234870207154, 36.020163041537479 ], [ 60.516285153545802, 36.01440181305648 ], [ 60.516322251625702, 36.002998140127531 ], [ 60.51591417274679, 35.997865949164485 ], [ 60.516025466986491, 35.996005072277349 ], [ 60.517954567141359, 35.990542244581775 ], [ 60.528861402632423, 35.972950570107983 ], [ 60.536726195571561, 35.971869725051143 ], [ 60.568556348127082, 35.975592573500741 ], [ 60.577608279623064, 35.973010616621664 ], [ 60.580427733695579, 35.963762915429761 ], [ 60.571598390679014, 35.961781124253527 ], [ 60.55994959358992, 35.953493095036627 ], [ 60.559652808950723, 35.950489971268574 ], [ 60.558688258873275, 35.94045871050038 ], [ 60.542661888355816, 35.930726570124527 ], [ 60.545132381717742, 35.926994629622058 ], [ 60.547262050263605, 35.923456720649469 ], [ 60.547484638743008, 35.92189451699489 ], [ 60.552158996810604, 35.922375198329199 ], [ 60.548300796500847, 35.914203218329128 ], [ 60.539860983323244, 35.885264018676011 ], [ 60.54067714108109, 35.88105598522791 ], [ 60.541252161319569, 35.877599219070369 ], [ 60.541919926757792, 35.877148325406708 ], [ 60.54785561954202, 35.86461245421075 ], [ 60.551268642892964, 35.857667269092339 ], [ 60.554681666243901, 35.853457769830513 ], [ 60.572266156117252, 35.850841754115784 ], [ 60.574380746671622, 35.840436975394844 ], [ 60.571598390679, 35.834452105762551 ], [ 60.577018188758657, 35.825937058028657 ], [ 60.583877855126424, 35.814930474287024 ], [ 60.585398876402373, 35.808823338792706 ], [ 60.588032840075371, 35.802866172890944 ], [ 60.588107036235172, 35.798172333557446 ], [ 60.588774801673395, 35.78378820170245 ], [ 60.58395205128619, 35.775541730475133 ], [ 60.590778097988078, 35.767715820892398 ], [ 60.584619816724427, 35.749171361611076 ], [ 60.584768209044029, 35.739415723259128 ], [ 60.577645377702929, 35.735561314466295 ], [ 60.567035326851091, 35.721286332252006 ], [ 60.553457429607121, 35.720503242338808 ], [ 60.543144163394487, 35.720443004334363 ], [ 60.532905093341668, 35.724298144802809 ], [ 60.520365942334955, 35.736223804255772 ], [ 60.518362646020272, 35.736404482332681 ], [ 60.515543191947756, 35.744895889499745 ], [ 60.513391503313464, 35.744835669942653 ], [ 60.501445921585173, 35.750134816576228 ], [ 60.481041977639315, 35.748569196335303 ], [ 60.451215121398477, 35.742667735547855 ], [ 60.438527578072133, 35.74122241315213 ], [ 60.433853220004544, 35.741041746007731 ], [ 60.408032956393072, 35.749352010305415 ], [ 60.367150872341576, 35.762417845008791 ], [ 60.33042377323904, 35.7741572025461 ], [ 60.318923368469569, 35.78138056129108 ], [ 60.302971194111905, 35.787580087477671 ], [ 60.300300132358977, 35.788964381652534 ], [ 60.294735420373755, 35.793598582322147 ], [ 60.279599403773929, 35.812794534494678 ], [ 60.255856632636949, 35.829218734208006 ], [ 60.250217724491911, 35.8482857933381 ], [ 60.239273790920954, 35.852224945591615 ], [ 60.238272142763606, 35.852315152893226 ], [ 60.239793164039575, 35.843925434816249 ], [ 60.232633234618575, 35.843564566818415 ], [ 60.227476601512251, 35.842241370112596 ], [ 60.214418077386902, 35.834241574490058 ], [ 60.200951474382649, 35.835203998604079 ], [ 60.189154284973945, 35.849368327959972 ], [ 60.186409027061238, 35.849248047065082 ], [ 60.187967146417115, 35.828105846330665 ], [ 60.186409027061238, 35.827504278817912 ], [ 60.177802272524083, 35.819442834217782 ], [ 60.155469228423364, 35.811771669741766 ], [ 60.152130401232213, 35.810267432934616 ], [ 60.127423080017785, 35.812553861620543 ], [ 60.109319217025828, 35.811109809057093 ], [ 60.094554181225021, 35.813937720685018 ], [ 60.085799034368243, 35.807619906948418 ], [ 60.083647345733965, 35.808402139721522 ], [ 60.051372016219617, 35.810447942855959 ], [ 60.047736404389255, 35.811169978438194 ], [ 60.042856709547848, 35.806697870126605 ], [ 60.037348942016827, 35.801602474199299 ], [ 60.035419841861945, 35.802144061814509 ], [ 60.026664695005188, 35.80617576466441 ], [ 60.02340006397386, 35.808341968243276 ], [ 60.010638324487722, 35.791191239080234 ], [ 60.00373808162604, 35.792635653776884 ], [ 59.974727383143026, 35.819773730519252 ], [ 59.94360209410565, 35.846150751188084 ], [ 59.932583964374878, 35.855667784811764 ], [ 59.908396016279063, 35.876502040013214 ], [ 59.864842870474654, 35.910943203986236 ], [ 59.859500746968827, 35.917613319983467 ], [ 59.85564254665907, 35.923441699607423 ], [ 59.855345762019851, 35.931672803020952 ], [ 59.852526307947343, 35.944348227730224 ], [ 59.859649139288436, 35.963447633796704 ], [ 59.863507339598208, 35.968612088631623 ], [ 59.863507339598208, 35.971254237225331 ], [ 59.87018499398048, 35.973055651476955 ], [ 59.869591424702051, 35.97629809353716 ], [ 59.88027567171369, 35.978339562797849 ], [ 59.880952588144112, 35.986570284025724 ], [ 59.872707663413777, 35.998151079647009 ], [ 59.859352354649225, 35.99863129707694 ], [ 59.854752192741429, 35.994069113434946 ], [ 59.845106691967025, 35.992628369039437 ], [ 59.812608773973274, 36.005954250561786 ], [ 59.808008612065493, 36.011956164265669 ], [ 59.803663499456945, 36.019894868698472 ], [ 59.791179995570054, 36.018072019343165 ], [ 59.777778314205641, 36.017081811897235 ], [ 59.777462980526472, 36.017216840917925 ], [ 59.769282853908166, 36.015746512459309 ], [ 59.763991740262206, 36.015450192943803 ], [ 59.75165662869496, 36.015405182287012 ], [ 59.749597685260426, 36.015105110584912 ], [ 59.733858824862189, 36.015615231798755 ], [ 59.714243215114259, 36.016237875276495 ], [ 59.71259235055863, 36.015945308471878 ], [ 59.70917700857769, 36.015709003721462 ], [ 59.707662943191714, 36.01560210372066 ], [ 59.682371327218853, 36.013848547924006 ], [ 59.679115970707507, 36.013852298887116 ], [ 59.677993753790489, 36.014144873460985 ], [ 59.67743728259196, 36.013856049850077 ], [ 59.673490974342442, 36.014705638358713 ], [ 59.665583866404653, 36.004549830571733 ], [ 59.654825423233355, 35.990743449190013 ], [ 59.642212076066997, 35.974592919622594 ], [ 59.642212076066997, 35.969308757492357 ], [ 59.639986191272939, 35.967687409565912 ], [ 59.640134583592534, 35.966486389635641 ], [ 59.631602025215301, 35.957598274372508 ], [ 59.631231044416296, 35.956457160094565 ], [ 59.613572358383422, 35.938677671961173 ], [ 59.604817211526779, 35.929726348340623 ], [ 59.591907079721231, 35.916748133278567 ], [ 59.584413267581212, 35.907794327006094 ], [ 59.578329182477447, 35.900342064689838 ], [ 59.572245097373681, 35.892768885802496 ], [ 59.563860931316057, 35.882429726089114 ], [ 59.559760510968033, 35.875995194067862 ], [ 59.557257473093671, 35.873892890943957 ], [ 59.552360526546735, 35.858560349518491 ], [ 59.550431426391889, 35.852125811412357 ], [ 59.543382791210696, 35.83119491767728 ], [ 59.52772740149247, 35.821148533484383 ], [ 59.517636723759395, 35.820847723931507 ], [ 59.502203922520572, 35.815312624714068 ], [ 59.4890712022356, 35.795816376780891 ], [ 59.486919513601343, 35.790941567087557 ], [ 59.486771121281734, 35.78853414335417 ], [ 59.486400140482736, 35.77757944461711 ], [ 59.489145398395422, 35.76559977715101 ], [ 59.495526268138377, 35.732179613464787 ], [ 59.497826349092243, 35.71784378519466 ], [ 59.496490818215811, 35.71687993948931 ], [ 59.489813163833617, 35.709108507583124 ], [ 59.489145398395422, 35.707542080712152 ], [ 59.485138805766113, 35.705855125041573 ], [ 59.45240392850301, 35.709551296572982 ], [ 59.430975609110618, 35.711759313699957 ], [ 59.429194901275366, 35.71212078043073 ], [ 59.411684607562087, 35.714651001643396 ], [ 59.392245213693954, 35.724771083155559 ], [ 59.375551077738493, 35.726578105304817 ], [ 59.37040624546264, 35.726149178044508 ], [ 59.351882502761647, 35.722723075167046 ], [ 59.322797608119259, 35.732721673993154 ], [ 59.281841327908538, 35.745790238659616 ], [ 59.279244462315454, 35.745549362864246 ], [ 59.261511580122779, 35.746573079960662 ], [ 59.246449759682974, 35.748259173536503 ], [ 59.236581670429295, 35.749282855781942 ], [ 59.232570724772167, 35.755503315231692 ], [ 59.231634025858462, 35.760090715248211 ], [ 59.231397839715733, 35.764357557841556 ], [ 59.230800817741383, 35.767186419087018 ], [ 59.231127020520219, 35.774268186162146 ], [ 59.231117230665461, 35.77783794984051 ], [ 59.229683757397481, 35.781434133145154 ], [ 59.226430525936571, 35.784858166203456 ], [ 59.220787240697724, 35.787160749306061 ], [ 59.217217458052765, 35.795697663934128 ], [ 59.213060822680703, 35.807539936891779 ], [ 59.198430770121412, 35.812371890614514 ], [ 59.184499681932195, 35.817207409285615 ], [ 59.178074705857789, 35.813296980312025 ], [ 59.172484640354888, 35.810304069033066 ], [ 59.165033263167949, 35.811977729640688 ], [ 59.158847961315495, 35.813312694766516 ], [ 59.150857565686131, 35.812130903464961 ], [ 59.144408817580192, 35.811297417070058 ], [ 59.142519183553993, 35.81927265195295 ], [ 59.139766227994237, 35.829636223782749 ], [ 59.115327494369026, 35.831326510422983 ], [ 59.089219957009377, 35.832654589989303 ], [ 59.087912195846343, 35.835961700486727 ], [ 59.086248977479677, 35.844317801460349 ], [ 59.079326003068303, 35.852685665374672 ], [ 59.067289918883944, 35.863679045505052 ], [ 59.070472253578629, 35.868942649976098 ], [ 59.072403038855427, 35.872832807623375 ], [ 59.068443501522665, 35.906569330575124 ], [ 59.0686734796137, 35.912158697984893 ], [ 59.076289468195952, 35.924633560326811 ], [ 59.07962765965403, 35.928530734852551 ], [ 59.084229381957897, 35.932550096279478 ], [ 59.088970269612375, 35.936911640205892 ], [ 59.088089107678087, 35.941125321504266 ], [ 59.088479011141359, 35.944778281214646 ], [ 59.105426819248223, 35.951945763386043 ], [ 59.116816742741712, 35.951666460417457 ], [ 59.127479838966671, 35.954233891876164 ], [ 59.141944777723737, 35.956248035118648 ], [ 59.140379122753949, 35.958520475624454 ], [ 59.13825198750024, 35.960791638675772 ], [ 59.136388057274111, 35.965115531846301 ], [ 59.134892116499458, 35.969098760314125 ], [ 59.133225177645549, 35.973536848826164 ], [ 59.135987518266163, 35.979596939957212 ], [ 59.137224648644576, 35.983137689046877 ], [ 59.159575666062764, 35.984510782359784 ], [ 59.172134144822877, 35.987416700734961 ], [ 59.175580076585213, 35.988239468661959 ], [ 59.192831399493528, 35.994710459203745 ], [ 59.19627269045931, 35.999931865872604 ], [ 59.199322261163779, 36.004636915430204 ], [ 59.207793560426097, 36.00250903947326 ], [ 59.209277483622138, 36.006830652234115 ], [ 59.218774592076798, 36.014993052268231 ], [ 59.229607231407897, 36.023394640019369 ], [ 59.243259324811469, 36.033835364880673 ], [ 59.258692126050292, 36.043194838262487 ], [ 59.27842830455765, 36.055552438425309 ], [ 59.282950312329938, 36.059009892758311 ], [ 59.29460306739449, 36.064909330187838 ], [ 59.29935162162181, 36.068028046844304 ], [ 59.308403553117664, 36.077983122654032 ], [ 59.313745676623405, 36.085058856086476 ], [ 59.314487638221422, 36.088056856141549 ], [ 59.314190853582204, 36.091249600473361 ], [ 59.313894068943007, 36.095011775926899 ], [ 59.318902309729637, 36.101036876940903 ], [ 59.314524736301323, 36.110118618731157 ], [ 59.32506059099321, 36.116921743927115 ], [ 59.323799256276601, 36.118959569799053 ], [ 59.326618710349074, 36.11883969915295 ], [ 59.328724026383455, 36.118360214738523 ], [ 59.345464534938806, 36.112875903490547 ], [ 59.354599937114408, 36.110530719073331 ], [ 59.356788723828579, 36.110590660761154 ], [ 59.357975862385409, 36.110290951864556 ], [ 59.364653516767589, 36.110320922805691 ], [ 59.382200908560783, 36.108462702829591 ], [ 59.394777157647248, 36.107083995084565 ], [ 59.412101960961017, 36.105195725645956 ], [ 59.426885545801568, 36.103622133108146 ], [ 59.444377290474925, 36.108837347491956 ], [ 59.455432518285448, 36.111834440460491 ], [ 59.461071426430401, 36.113213064821558 ], [ 59.467767629852553, 36.118382690635862 ], [ 59.46952978864784, 36.120255659473159 ], [ 59.466765981695211, 36.124660706053831 ], [ 59.465819980657741, 36.135567376622333 ], [ 59.46689582497487, 36.139701926914256 ], [ 59.4680829635317, 36.141199898613273 ], [ 59.490861184590941, 36.150366862250522 ], [ 59.493903227142837, 36.155459156902531 ], [ 59.498503389050576, 36.166750889318067 ], [ 59.497575937053043, 36.173129849317796 ], [ 59.502598089619639, 36.18141910098219 ], [ 59.502992256718599, 36.180855781557234 ], [ 59.506066760090398, 36.1803261453136 ], [ 59.506882917848223, 36.180333631363212 ], [ 59.513931553029437, 36.183799595484189 ], [ 59.514692063667404, 36.183769652606365 ], [ 59.526841684835013, 36.18713815457258 ], [ 59.529401452348189, 36.188231015196308 ], [ 59.534131457535572, 36.187669616095747 ], [ 59.534993987893273, 36.187115698372487 ], [ 59.535796233871125, 36.187108212971033 ], [ 59.535800871131123, 36.186827509899594 ], [ 59.538017481405213, 36.186565519458632 ], [ 59.538314266044431, 36.186273586220658 ], [ 59.54053087631852, 36.186266100738706 ], [ 59.540790562877831, 36.18655803400457 ], [ 59.586096592957084, 36.190270731389283 ], [ 59.586634515115655, 36.190562649728143 ], [ 59.587728908472741, 36.190555164656132 ], [ 59.588016418591977, 36.190847081934734 ], [ 59.589435420148185, 36.190835854367215 ], [ 59.595672534831571, 36.198982902602417 ], [ 59.592088512518622, 36.206732009513743 ], [ 59.591187987841963, 36.207249153724533 ], [ 59.586431055333641, 36.209934893054836 ], [ 59.587126644331796, 36.220126374446856 ], [ 59.588768234367429, 36.221705112200979 ], [ 59.587840782369867, 36.237475776046971 ], [ 59.587070997211903, 36.237887207149178 ], [ 59.584140248899679, 36.238680140983689 ], [ 59.584761641738069, 36.243848974813559 ], [ 59.585355211016484, 36.245973258929475 ], [ 59.585243916776783, 36.248217158314041 ], [ 59.581608304946421, 36.252659889014502 ], [ 59.578417870074887, 36.254499733821632 ], [ 59.573576570647731, 36.255157879166326 ], [ 59.569365938578905, 36.25518779473208 ], [ 59.562372950517471, 36.25580106130564 ], [ 59.554174274859236, 36.257102367113781 ], [ 59.546290932880162, 36.258628008388065 ], [ 59.543712616326999, 36.259345946913157 ], [ 59.539668925617732, 36.26112580771629 ], [ 59.538277747621429, 36.262097983465686 ], [ 59.527537853489925, 36.268155113629057 ], [ 59.518745608553239, 36.272462120371799 ], [ 59.512253444570469, 36.273837919680695 ], [ 59.507430694183277, 36.274794983162096 ], [ 59.501643393718631, 36.27790535844882 ], [ 59.494372170057922, 36.283228597810592 ], [ 59.492072089104028, 36.284604207376304 ], [ 59.487175142557028, 36.286428347883174 ], [ 59.48190721521101, 36.289089722298151 ], [ 59.47723285714342, 36.290405424434383 ], [ 59.474450501150805, 36.291063267182992 ], [ 59.471556850918489, 36.292050020906402 ], [ 59.469219671884687, 36.293335772184591 ], [ 59.467290571729819, 36.295817511239932 ], [ 59.466140531252861, 36.297820785179688 ], [ 59.465398569654838, 36.300451872791562 ], [ 59.46495339269601, 36.303710710535739 ], [ 59.464619509976892, 36.306431287292583 ], [ 59.464989689334956, 36.30779056595884 ], [ 59.464248529177873, 36.311872156067324 ], [ 59.463469469499941, 36.314114161855883 ], [ 59.463098488700929, 36.318089826905577 ], [ 59.463543665659742, 36.319674057981707 ], [ 59.46139197702545, 36.320361544467744 ], [ 59.458387032553432, 36.322752754581941 ], [ 59.457645070955408, 36.32645898526836 ], [ 59.440171875321781, 36.32867068411305 ], [ 59.437426617409066, 36.328670684113057 ], [ 59.43790889244778, 36.329507526764559 ], [ 59.436202380772315, 36.329597187944131 ], [ 59.436795950050744, 36.330822547057437 ], [ 59.438057284767396, 36.330732887287979 ], [ 59.439096031004638, 36.331629480339394 ], [ 59.440171875321781, 36.331539821498552 ], [ 59.442880035154602, 36.333332978710565 ], [ 59.441581602358049, 36.334110000684838 ], [ 59.44121062155903, 36.334916899916536 ], [ 59.442471956275661, 36.33548471288421 ], [ 59.442063877396755, 36.336441020105838 ], [ 59.439837992602655, 36.337606503658641 ], [ 59.441321915798724, 36.339040921014799 ], [ 59.442175171636464, 36.340804022824166 ], [ 59.442026779316848, 36.341909676477137 ], [ 59.442434858195774, 36.343254369224873 ], [ 59.440691248440395, 36.344539276156766 ], [ 59.441841288917345, 36.347228547621306 ], [ 59.442471956275661, 36.347348068641821 ], [ 59.439298138050603, 36.351657668678342 ], [ 59.436721753890936, 36.355236050344217 ], [ 59.423329347046483, 36.360583886302379 ], [ 59.420250206414657, 36.361868507242626 ], [ 59.420203833814782, 36.362585495756186 ], [ 59.423320072526508, 36.366230085227812 ], [ 59.424321720683849, 36.369456300677342 ], [ 59.426658899717644, 36.371935616083931 ], [ 59.426992782436763, 36.374623941089347 ], [ 59.428996078751439, 36.378118624700811 ], [ 59.433188161780315, 36.381762486539166 ], [ 59.437046362090072, 36.383703818624824 ], [ 59.439717423842986, 36.386033353153387 ], [ 59.442944956794427, 36.388153766213257 ], [ 59.446951549423794, 36.390005347221646 ], [ 59.448435472619842, 36.388273224383219 ], [ 59.450216180455122, 36.388303088897054 ], [ 59.452404967169308, 36.389796299961276 ], [ 59.453851792285477, 36.390572758380529 ], [ 59.460826231306974, 36.393738239370137 ], [ 59.469358789684321, 36.390542894738573 ], [ 59.459193915791303, 36.395500102192983 ], [ 59.457821286834928, 36.399382031878545 ], [ 59.45837775803345, 36.403532496048499 ], [ 59.460121367788837, 36.406160013444108 ], [ 59.463979568098587, 36.408996438168749 ], [ 59.46700952182514, 36.41065841485139 ], [ 59.468325166987007, 36.413389857838624 ], [ 59.467701326553218, 36.413963491780748 ], [ 59.466769313036131, 36.414746999423166 ], [ 59.465110583435717, 36.41619175503503 ], [ 59.46324204306169, 36.41781916484063 ], [ 59.461556774817836, 36.419286873298319 ], [ 59.460442707926255, 36.420257077267287 ], [ 59.459611273674611, 36.420981124490559 ], [ 59.457954059207815, 36.42311691312328 ], [ 59.456194582448916, 36.424902136904485 ], [ 59.453829474753029, 36.427068362874223 ], [ 59.451971760797811, 36.428798315303673 ], [ 59.449566794814295, 36.430374261128236 ], [ 59.447850733200845, 36.432060812094193 ], [ 59.445762485598031, 36.434113021607956 ], [ 59.44127849183554, 36.437807706058464 ], [ 59.433084837291538, 36.44455774425564 ], [ 59.4246727745684, 36.451134900778108 ], [ 59.420184763856959, 36.454596848868533 ], [ 59.413587564376179, 36.460086414044014 ], [ 59.403056443175416, 36.463665029897314 ], [ 59.39174951872598, 36.470224680539744 ], [ 59.382021734698775, 36.470951990497987 ], [ 59.372629849872453, 36.473639537362438 ], [ 59.360818131187983, 36.478194183328995 ], [ 59.356632801798966, 36.480407507379773 ], [ 59.355331774523599, 36.481025017512081 ], [ 59.353960989513176, 36.481762247407019 ], [ 59.352672442167737, 36.482793771325419 ], [ 59.351814567411942, 36.483520884877123 ], [ 59.35026768664487, 36.484498272706524 ], [ 59.348713623480329, 36.48523906805125 ], [ 59.347114770427645, 36.48602282813534 ], [ 59.343875846643442, 36.487875606023643 ], [ 59.341480233912712, 36.489148431487237 ], [ 59.339089217062508, 36.490765866366729 ], [ 59.337958439209061, 36.491117014764612 ], [ 59.332118468293743, 36.490023623312794 ], [ 59.327154326604763, 36.490519423798581 ], [ 59.324758409753706, 36.491794177316464 ], [ 59.323510618162722, 36.493857689873792 ], [ 59.320869082262107, 36.497757686187114 ], [ 59.318137098087895, 36.500359257481705 ], [ 59.311777354656442, 36.50308298246231 ], [ 59.307510864505119, 36.504033128010192 ], [ 59.304342367878291, 36.508508003285336 ], [ 59.307252700510666, 36.512658548458475 ], [ 59.313029730483954, 36.52288903066114 ], [ 59.308923520038903, 36.524052443494618 ], [ 59.305395301371931, 36.52635144504363 ], [ 59.302425405186113, 36.527623345655762 ], [ 59.29846168687714, 36.528898567011829 ], [ 59.295208873480256, 36.530286154677064 ], [ 59.291671894329731, 36.53167235862864 ], [ 59.288132946636509, 36.532833171311466 ], [ 59.284878446336748, 36.534103344402723 ], [ 59.282195079412652, 36.535714004796027 ], [ 59.278515279543896, 36.537102558716001 ], [ 59.275969192744121, 36.538142635803545 ], [ 59.272997091363351, 36.539298940551745 ], [ 59.271445464009545, 36.540448390565842 ], [ 59.269902092710865, 36.5425079816265 ], [ 59.267649975816177, 36.544799606276953 ], [ 59.267254489263223, 36.548108158998353 ], [ 59.268284912176199, 36.552094849875679 ], [ 59.268875533388147, 36.554600497899322 ], [ 59.26732046509661, 36.555407467526223 ], [ 59.265339918659542, 36.556328408950705 ], [ 59.263357665540426, 36.557024024395403 ], [ 59.260810048385068, 36.558063816752778 ], [ 59.257128240170282, 36.559336849341825 ], [ 59.25656702671904, 36.560138372732723 ], [ 59.25658021724643, 36.561620769577715 ], [ 59.258869502356852, 36.563431831144598 ], [ 59.26006998610918, 36.564122920116091 ], [ 59.262032650589759, 36.565213203550975 ], [ 59.266720500639735, 36.567611256847599 ], [ 59.271150561670026, 36.570438106916541 ], [ 59.274284505785452, 36.571333710478548 ], [ 59.280663057446787, 36.56970437084783 ], [ 59.284065052387369, 36.568886623561745 ], [ 59.287919930585495, 36.570919453531737 ], [ 59.2920697584373, 36.574088875142877 ], [ 59.29649781391236, 36.576574557894098 ], [ 59.299638663967485, 36.578152082038841 ], [ 59.302772506270053, 36.579697663794676 ], [ 59.306068347739611, 36.581880837835747 ], [ 59.313744231263072, 36.582178156245625 ], [ 59.32084977026323, 36.582251754688563 ], [ 59.351603091241437, 36.570811344337848 ], [ 59.367772067306888, 36.572392819110533 ], [ 59.36717612183363, 36.57719380441182 ], [ 59.360454175549044, 36.580799307171183 ], [ 59.344989693469088, 36.58511563186601 ], [ 59.337250378390287, 36.588201842692278 ], [ 59.33699482939759, 36.591052668104098 ], [ 59.338585396788574, 36.59378164211526 ], [ 59.352859857675185, 36.59996725886284 ], [ 59.369464540933784, 36.605717236545999 ], [ 59.370416685388278, 36.615197643286315 ], [ 59.36977371849639, 36.626913578703203 ], [ 59.373303183912995, 36.636497461115169 ], [ 59.380071876975087, 36.652266645823438 ], [ 59.382298853151312, 36.659486065312109 ], [ 59.383119883058704, 36.664491062289471 ], [ 59.381778897235328, 36.669764093149986 ], [ 59.382320168953491, 36.676479134660383 ], [ 59.384832342705423, 36.682078545892182 ], [ 59.38616752589963, 36.687432472045586 ], [ 59.385306716941294, 36.692023308867405 ], [ 59.382913514288035, 36.695703217140021 ], [ 59.381518144781488, 36.6992285970368 ], [ 59.380535559228427, 36.705301525023835 ], [ 59.381319950200385, 36.709052298895891 ], [ 59.385015192315954, 36.715031533477685 ], [ 59.389717396282158, 36.721152532364243 ], [ 59.389186559502441, 36.725602236368395 ], [ 59.389920430082412, 36.731968201334865 ], [ 59.396002201643007, 36.739341833949183 ], [ 59.398643309808023, 36.744579502406168 ], [ 59.398530593651941, 36.746330480959585 ], [ 59.395910798712386, 36.748131992300259 ], [ 59.393702550875588, 36.750049570386743 ], [ 59.389829873710873, 36.761601501214301 ], [ 59.370476388341004, 36.774095316414616 ], [ 59.340637708264985, 36.796257266144977 ], [ 59.332683088830677, 36.804350095246313 ], [ 59.322780998223195, 36.808983056194471 ], [ 59.310972795361629, 36.811500014363574 ], [ 59.301025134210903, 36.81378821334426 ], [ 59.312591166947854, 36.822808430033653 ], [ 59.318734165789458, 36.827997156339073 ], [ 59.32259869293533, 36.833076889290659 ], [ 59.327604513512604, 36.838381979832704 ], [ 59.33289109491804, 36.842552510344333 ], [ 59.32895162387706, 36.850148583446938 ], [ 59.326902794097762, 36.857311043374473 ], [ 59.326109920435819, 36.863657511481698 ], [ 59.327745575709429, 36.868848493665659 ], [ 59.331515405724616, 36.873016568745378 ], [ 59.332819229816224, 36.876836013216618 ], [ 59.333141568993234, 36.8777802166396 ], [ 59.330395762564059, 36.884718998429641 ], [ 59.326042829369868, 36.890412552072881 ], [ 59.321872971316829, 36.894292745239618 ], [ 59.311310188923706, 36.897272660623536 ], [ 59.30134894131605, 36.901375303005167 ], [ 59.291102429164461, 36.905705686992711 ], [ 59.283567380891917, 36.911382285154161 ], [ 59.276456449947823, 36.916381103408547 ], [ 59.268915458013197, 36.920815426736432 ], [ 59.264789603480644, 36.923541642288221 ], [ 59.261092815908349, 36.92671918796654 ], [ 59.260699808838154, 36.931360475784551 ], [ 59.260408214339499, 36.935419057826614 ], [ 59.259855168156435, 36.940755038348314 ], [ 59.260444996602743, 36.946750673673158 ], [ 59.262167564379972, 36.950253027421851 ], [ 59.26560455970553, 36.954545032411879 ], [ 59.267612943789921, 36.957821034005732 ], [ 59.269196866531921, 36.962231678058181 ], [ 59.270064977214233, 36.965962026942911 ], [ 59.270650411601522, 36.970261056491339 ], [ 59.291521354219924, 36.986964541507113 ], [ 59.30305602505657, 36.98786467245241 ], [ 59.324443762765135, 36.98231512426716 ], [ 59.346471365638081, 36.975305324269563 ], [ 59.350651579834711, 36.963122432963623 ], [ 59.360253136935988, 36.957150437683353 ], [ 59.38222948837079, 36.94456949788772 ], [ 59.389630777027875, 36.941714773067744 ], [ 59.396600502514715, 36.93806846463476 ] ] ] ] } }
]
}
