{
"type": "FeatureCollection",
"name": "Shahr",
"crs": { "type": "name", "properties": { "name": "urn:ogc:def:crs:OGC:1.3:CRS84" } },
"features": [
{ "type": "Feature", "properties": { "ostan": "خراسان رضوی", "shahrestan": "مشهد", "bakhsh": "مرکزی", "shahr": "مشهد" }, "geometry": { "type": "MultiPolygon", "coordinates": [ [ [ [ 59.57919012834715, 36.24597866027451, 0.0 ], [ 59.578320855672217, 36.247628728103763, 0.0 ], [ 59.577946122141732, 36.249430357052923, 0.0 ], [ 59.579049456756799, 36.24914518826489, 0.0 ], [ 59.580182567510512, 36.249427172972602, 0.0 ], [ 59.580949793156783, 36.249410611538757, 0.0 ], [ 59.581303973743147, 36.249691373897612, 0.0 ], [ 59.581731984538521, 36.250862807148621, 0.0 ], [ 59.582648671547311, 36.251329697265433, 0.0 ], [ 59.583783152980082, 36.251314195299607, 0.0 ], [ 59.584883223908022, 36.250929902444589, 0.0 ], [ 59.585675341685032, 36.250317928430192, 0.0 ], [ 59.587309876592961, 36.250282563663617, 0.0 ], [ 59.588770542531662, 36.250710593420713, 0.0 ], [ 59.588108067920601, 36.251878573075437, 0.0 ], [ 59.587124589641782, 36.253098560693857, 0.0 ], [ 59.586498065315261, 36.253670910502777, 0.0 ], [ 59.583348225710623, 36.255000811231483, 0.0 ], [ 59.582230592185113, 36.254853715974058, 0.0 ], [ 59.581571399453082, 36.255111298856662, 0.0 ], [ 59.578357711062829, 36.255180658088477, 0.0 ], [ 59.57750189245413, 36.25555061317521, 0.0 ], [ 59.56171675829129, 36.259125532382207, 0.0 ], [ 59.55810460956031, 36.259608465383231, 0.0 ], [ 59.557172294927391, 36.259626789723157, 0.0 ], [ 59.55293310582968, 36.259710012652931, 0.0 ], [ 59.551794100239221, 36.259932615621452, 0.0 ], [ 59.542732942141413, 36.262946731413948, 0.0 ], [ 59.539263552981822, 36.263723486769322, 0.0 ], [ 59.536340707053178, 36.26522760189679, 0.0 ], [ 59.531724794418622, 36.267037906421571, 0.0 ], [ 59.529173730117442, 36.268344704219707, 0.0 ], [ 59.528005974035629, 36.269489916984512, 0.0 ], [ 59.528005974035651, 36.269489916984519, 0.0 ], [ 59.526487300049709, 36.270979204326252, 0.0 ], [ 59.525059239227033, 36.271910671000462, 0.0 ], [ 59.522778439918717, 36.272977290859842, 0.0 ], [ 59.514459966005731, 36.274937138833486, 0.0 ], [ 59.498602344790832, 36.281344420273527, 0.0 ], [ 59.493518163570251, 36.284463272926551, 0.0 ], [ 59.492913682918527, 36.284834056277809, 0.0 ], [ 59.481047261805713, 36.290479762289493, 0.0 ], [ 59.472080093683807, 36.292792662000707, 0.0 ], [ 59.472020377668208, 36.292840920032468, 0.0 ], [ 59.468497278186717, 36.295687790477118, 0.0 ], [ 59.466753690025072, 36.299716544576597, 0.0 ], [ 59.46724664935855, 36.307232194356871, 0.0 ], [ 59.463367562757419, 36.314892138450993, 0.0 ], [ 59.463543459813707, 36.320125039692194, 0.0 ], [ 59.460846860098663, 36.321145004621272, 0.0 ], [ 59.459349937497358, 36.322419619564243, 0.0 ], [ 59.457883815228413, 36.324675995341217, 0.0 ], [ 59.45672373688938, 36.325330766105083, 0.0 ], [ 59.438426001765592, 36.330410455007282, 0.0 ], [ 59.439156986048133, 36.330990388135362, 0.0 ], [ 59.43807541681052, 36.331670417086549, 0.0 ], [ 59.441613147035547, 36.334022648752153, 0.0 ], [ 59.442081750399581, 36.335473171749221, 0.0 ], [ 59.439344505433169, 36.337358739757882, 0.0 ], [ 59.439396496641102, 36.339025079353561, 0.0 ], [ 59.441712102741398, 36.340401813785562, 0.0 ], [ 59.441740235952039, 36.341302535906962, 0.0 ], [ 59.438872058072818, 36.342568876670427, 0.0 ], [ 59.442080947458088, 36.347929113910588, 0.0 ], [ 59.439632392666162, 36.3512238225617, 0.0 ], [ 59.43401798118461, 36.356268478876082, 0.0 ], [ 59.420155785989429, 36.362003077859988, 0.0 ], [ 59.423019435415071, 36.365946768734062, 0.0 ], [ 59.423583105876617, 36.36895467623529, 0.0 ], [ 59.425871398305802, 36.371657162702888, 0.0 ], [ 59.427696732974667, 36.37695573465713, 0.0 ], [ 59.432796375619262, 36.381800036104522, 0.0 ], [ 59.437411510970307, 36.38395913359966, 0.0 ], [ 59.438240686659228, 36.38516795945975, 0.0 ], [ 59.445052892695387, 36.389129505717392, 0.0 ], [ 59.449054156572267, 36.388398555873827, 0.0 ], [ 59.450047757851621, 36.388609711119493, 0.0 ], [ 59.468197205842102, 36.395196551521273, 0.0 ], [ 59.468333529903411, 36.398095870346012, 0.0 ], [ 59.470356381383247, 36.398252304646547, 0.0 ], [ 59.47133365254998, 36.398835935156242, 0.0 ], [ 59.474018725962956, 36.398780311527837, 0.0 ], [ 59.476718067696417, 36.398471972130288, 0.0 ], [ 59.477850540377119, 36.399728289844823, 0.0 ], [ 59.479974682264562, 36.401315495605992, 0.0 ], [ 59.481247190048272, 36.402064151429073, 0.0 ], [ 59.483495075135082, 36.400530285843011, 0.0 ], [ 59.490003512444162, 36.398006294367093, 0.0 ], [ 59.492080153371759, 36.398449646601037, 0.0 ], [ 59.500369435842117, 36.39828530306491, 0.0 ], [ 59.501356536747473, 36.397777930941018, 0.0 ], [ 59.503516599099903, 36.397345095195313, 0.0 ], [ 59.505441074229871, 36.397908571071987, 0.0 ], [ 59.508600437350822, 36.400888496816677, 0.0 ], [ 59.513240132525397, 36.39674815931707, 0.0 ], [ 59.516817388093571, 36.399787229755162, 0.0 ], [ 59.52008124931254, 36.396942437401613, 0.0 ], [ 59.521327394839922, 36.397556025507377, 0.0 ], [ 59.521928997367347, 36.397543315914341, 0.0 ], [ 59.523029389731818, 36.398475411024513, 0.0 ], [ 59.522306315462181, 36.400248176960979, 0.0 ], [ 59.523727877280372, 36.400767903966717, 0.0 ], [ 59.524749206438287, 36.399944171020223, 0.0 ], [ 59.526392601952409, 36.399395671541818, 0.0 ], [ 59.526635244645057, 36.398281969783007, 0.0 ], [ 59.529598843286827, 36.394785350073548, 0.0 ], [ 59.534253843485629, 36.388801301337182, 0.0 ], [ 59.537634511826262, 36.383754459372952, 0.0 ], [ 59.540429737857991, 36.385389398300312, 0.0 ], [ 59.541534221661522, 36.384050032123071, 0.0 ], [ 59.546167424528178, 36.385303206346173, 0.0 ], [ 59.54903511987559, 36.383006856425538, 0.0 ], [ 59.5509351821336, 36.383507031406992, 0.0 ], [ 59.553307449406233, 36.383789784713407, 0.0 ], [ 59.555343339076181, 36.381628240277237, 0.0 ], [ 59.557088867157013, 36.380473290600683, 0.0 ], [ 59.557055528264272, 36.37945557096608, 0.0 ], [ 59.557232038151326, 36.378379280142582, 0.0 ], [ 59.549415528604683, 36.374860260199242, 0.0 ], [ 59.554651732882327, 36.369349721729463, 0.0 ], [ 59.557235016924153, 36.370303842135087, 0.0 ], [ 59.558096954595932, 36.369059650483678, 0.0 ], [ 59.559255140418003, 36.369034830000892, 0.0 ], [ 59.559192567663573, 36.367125479298977, 0.0 ], [ 59.560528901571942, 36.367096828334432, 0.0 ], [ 59.562251561313794, 36.366275768163312, 0.0 ], [ 59.561041648070969, 36.364382022034128, 0.0 ], [ 59.56710302297207, 36.362966446990171, 0.0 ], [ 59.569228419465603, 36.362574845529693, 0.0 ], [ 59.571010672730047, 36.362554507960169, 0.0 ], [ 59.57272955596153, 36.361625228853192, 0.0 ], [ 59.575215973357231, 36.361670768414442, 0.0 ], [ 59.576247990683662, 36.36221630409328, 0.0 ], [ 59.577785846326528, 36.362219163646699, 0.0 ], [ 59.578291825201987, 36.362018972946053, 0.0 ], [ 59.584974727255307, 36.361928555302001, 0.0 ], [ 59.585698706383809, 36.362255360062491, 0.0 ], [ 59.587591986447663, 36.362223357675042, 0.0 ], [ 59.589770211412052, 36.362383423300059, 0.0 ], [ 59.597706180160174, 36.36847480111345, 0.0 ], [ 59.59774912459384, 36.369095737201377, 0.0 ], [ 59.599065053754742, 36.370797519054207, 0.0 ], [ 59.598928240512883, 36.372044237502301, 0.0 ], [ 59.599219157506141, 36.373083366743742, 0.0 ], [ 59.602335909637461, 36.376314080861, 0.0 ], [ 59.604675947924051, 36.375298701524208, 0.0 ], [ 59.606735596554927, 36.37447754695603, 0.0 ], [ 59.610366009576779, 36.373707056074991, 0.0 ], [ 59.611790593333573, 36.373103900955392, 0.0 ], [ 59.613102470762954, 36.371996204461013, 0.0 ], [ 59.615741318358623, 36.369928612970803, 0.0 ], [ 59.617697426717633, 36.367776797925032, 0.0 ], [ 59.617921608537912, 36.367644053998141, 0.0 ], [ 59.61792160853792, 36.367644053998148, 0.0 ], [ 59.63142297285615, 36.360010634637653, 0.0 ], [ 59.641727917994963, 36.354062343333609, 0.0 ], [ 59.646025056336107, 36.351521497996671, 0.0 ], [ 59.655209888094099, 36.34555274086879, 0.0 ], [ 59.65771733024625, 36.345033609775591, 0.0 ], [ 59.662643879839457, 36.342377041203683, 0.0 ], [ 59.672470682613152, 36.337525118013161, 0.0 ], [ 59.688504108886093, 36.329956707193432, 0.0 ], [ 59.688504108886086, 36.329956707193432, 0.0 ], [ 59.692135100632669, 36.328242243314008, 0.0 ], [ 59.699358937509473, 36.324555333489187, 0.0 ], [ 59.703753636182519, 36.320877995444739, 0.0 ], [ 59.707668381542327, 36.314606787232982, 0.0 ], [ 59.689688838427223, 36.292725079591982, 0.0 ], [ 59.686426147997402, 36.285865921283431, 0.0 ], [ 59.683174364242973, 36.279028304858493, 0.0 ], [ 59.700556630212013, 36.282644150999147, 0.0 ], [ 59.701798144219893, 36.28290242828831, 0.0 ], [ 59.701564538847869, 36.282501134520807, 0.0 ], [ 59.699630339956506, 36.280026449257583, 0.0 ], [ 59.694650025376419, 36.272874315521413, 0.0 ], [ 59.694096715069591, 36.27207961779613, 0.0 ], [ 59.691938157957573, 36.270258292589332, 0.0 ], [ 59.691740390552802, 36.270138581037934, 0.0 ], [ 59.692181386662647, 36.2699555880003, 0.0 ], [ 59.692187113786062, 36.269963752011051, 0.0 ], [ 59.69233709577442, 36.269929415382293, 0.0 ], [ 59.699400539900829, 36.266673383542731, 0.0 ], [ 59.694716771108993, 36.26322527701452, 0.0 ], [ 59.690655074742821, 36.256922513285353, 0.0 ], [ 59.690372079299323, 36.256498310796466, 0.0 ], [ 59.693521424247571, 36.254984516761297, 0.0 ], [ 59.693586038004632, 36.254327652471893, 0.0 ], [ 59.682455199654477, 36.246049964163923, 0.0 ], [ 59.679588117999863, 36.248110727208058, 0.0 ], [ 59.677096979802442, 36.249392239868442, 0.0 ], [ 59.667310332462058, 36.243879938748712, 0.0 ], [ 59.662064563169629, 36.250096869458957, 0.0 ], [ 59.652391331580972, 36.245651160044723, 0.0 ], [ 59.651967424317753, 36.245274379998961, 0.0 ], [ 59.647027149165133, 36.240882932811047, 0.0 ], [ 59.64718065141814, 36.240879534050002, 0.0 ], [ 59.659045475435818, 36.235252079804283, 0.0 ], [ 59.655908171689639, 36.230303287231322, 0.0 ], [ 59.656149387621383, 36.229407345125402, 0.0 ], [ 59.658952301711167, 36.227352177129262, 0.0 ], [ 59.659839269235931, 36.227769105785313, 0.0 ], [ 59.666365405734958, 36.222706222798223, 0.0 ], [ 59.667297193791718, 36.221648988352143, 0.0 ], [ 59.671673740701671, 36.214611557225787, 0.0 ], [ 59.674379843391527, 36.209161514097531, 0.0 ], [ 59.674898203852877, 36.207401469475769, 0.0 ], [ 59.672646851241673, 36.20562223517971, 0.0 ], [ 59.67454909578408, 36.204660421412122, 0.0 ], [ 59.669381026841322, 36.202784083552459, 0.0 ], [ 59.670885300109447, 36.199929539424083, 0.0 ], [ 59.665784346311547, 36.19969184408604, 0.0 ], [ 59.663026756461122, 36.200023653340537, 0.0 ], [ 59.659841989310678, 36.199562771104702, 0.0 ], [ 59.658030516163379, 36.199594028397541, 0.0 ], [ 59.653957032824728, 36.198828277641482, 0.0 ], [ 59.652606775680098, 36.198686989099933, 0.0 ], [ 59.651528495222692, 36.19902634213674, 0.0 ], [ 59.646297605524587, 36.1988898319252, 0.0 ], [ 59.645966786475107, 36.194679199482039, 0.0 ], [ 59.64566131739145, 36.193532328119858, 0.0 ], [ 59.638471889616028, 36.191681286428782, 0.0 ], [ 59.63108472543216, 36.18856335524238, 0.0 ], [ 59.630190771526188, 36.188309844504353, 0.0 ], [ 59.627276093713149, 36.188001332135777, 0.0 ], [ 59.621027764488311, 36.188339019419523, 0.0 ], [ 59.619382939247323, 36.188836916367173, 0.0 ], [ 59.616883055865088, 36.190461123363797, 0.0 ], [ 59.61343754680609, 36.194177616866803, 0.0 ], [ 59.611234170947107, 36.195999146344022, 0.0 ], [ 59.610537250669452, 36.196575262265718, 0.0 ], [ 59.605818192197603, 36.201472971033098, 0.0 ], [ 59.599624846347893, 36.210503415201401, 0.0 ], [ 59.594755934951671, 36.218378154433502, 0.0 ], [ 59.593192945725797, 36.221233065096229, 0.0 ], [ 59.591098517000972, 36.234944265696242, 0.0 ], [ 59.590751659576512, 36.237238276219657, 0.0 ], [ 59.589725924623593, 36.237397468900852, 0.0 ], [ 59.588785252878218, 36.23754345155902, 0.0 ], [ 59.587754497498238, 36.237703406708611, 0.0 ], [ 59.587054531215031, 36.237812022583761, 0.0 ], [ 59.586489828847157, 36.23789871067877, 0.0 ], [ 59.583635295385733, 36.238717504207237, 0.0 ], [ 59.581607565031163, 36.239644559844884, 0.0 ], [ 59.580674224791899, 36.241034655984869, 0.0 ], [ 59.580477339994303, 36.241814006876588, 0.0 ], [ 59.5797924094066, 36.243315901121548, 0.0 ], [ 59.579850757929407, 36.245090164363269, 0.0 ], [ 59.579698675815678, 36.245294705954962, 0.0 ], [ 59.57919012834715, 36.24597866027451, 0.0 ] ] ], [ [ [ 59.506800067337728, 36.498196212837492, 0.0 ], [ 59.507919804365422, 36.498223061099303, 0.0 ], [ 59.509779252430448, 36.498085230427122, 0.0 ], [ 59.512580271590778, 36.497687853200773, 0.0 ], [ 59.514420643190782, 36.49732108250771, 0.0 ], [ 59.516151859766993, 36.496741750551962, 0.0 ], [ 59.517733620296319, 36.496134220667372, 0.0 ], [ 59.518620032252237, 36.495710224093621, 0.0 ], [ 59.520101051204257, 36.494902151350203, 0.0 ], [ 59.521525685108521, 36.493978710524452, 0.0 ], [ 59.522261523990018, 36.493445072970317, 0.0 ], [ 59.522921048635183, 36.492898916198421, 0.0 ], [ 59.523563364694667, 36.492362539779378, 0.0 ], [ 59.524174836436487, 36.491772346120563, 0.0 ], [ 59.524726205771771, 36.491145723479157, 0.0 ], [ 59.52527288874105, 36.490531574582782, 0.0 ], [ 59.526136395515387, 36.489545458744949, 0.0 ], [ 59.526575666515512, 36.489283969854327, 0.0 ], [ 59.528121333409963, 36.488642712313492, 0.0 ], [ 59.528956255834437, 36.488256017249959, 0.0 ], [ 59.529776491684849, 36.487831645125283, 0.0 ], [ 59.530543300819851, 36.487419252278031, 0.0 ], [ 59.532019908650113, 36.486453583136033, 0.0 ], [ 59.532709678613621, 36.485929153155332, 0.0 ], [ 59.533312975891732, 36.485380635767577, 0.0 ], [ 59.534040739729882, 36.484731825913769, 0.0 ], [ 59.536133331738291, 36.482335300607609, 0.0 ], [ 59.537654210557122, 36.48013174283885, 0.0 ], [ 59.53875930996881, 36.479058089492362, 0.0 ], [ 59.541051051251927, 36.47676623773107, 0.0 ], [ 59.541463099356577, 36.475984794496043, 0.0 ], [ 59.541507749070149, 36.475216295196851, 0.0 ], [ 59.54124543007989, 36.474567962900913, 0.0 ], [ 59.540671459416778, 36.473999264261472, 0.0 ], [ 59.539946308436242, 36.473525069791272, 0.0 ], [ 59.537728178082332, 36.47205357468129, 0.0 ], [ 59.535557556485621, 36.470602865995083, 0.0 ], [ 59.533842732777529, 36.469974282944172, 0.0 ], [ 59.532802317363007, 36.46977746004341, 0.0 ], [ 59.53199720137296, 36.469732594818247, 0.0 ], [ 59.5310326694986, 36.469753897001908, 0.0 ], [ 59.528085645896567, 36.469816400630421, 0.0 ], [ 59.527296379646543, 36.469893573721833, 0.0 ], [ 59.526332029016579, 36.469914004503458, 0.0 ], [ 59.525390811609427, 36.469832599319382, 0.0 ], [ 59.524465219542087, 36.46965177292698, 0.0 ], [ 59.523564106051872, 36.469378766144402, 0.0 ], [ 59.522752007910732, 36.468995189726833, 0.0 ], [ 59.520479426015939, 36.467440210449368, 0.0 ], [ 59.517821620999563, 36.46544916081541, 0.0 ], [ 59.514111301890587, 36.462617963981771, 0.0 ], [ 59.510459623310673, 36.459059464389078, 0.0 ], [ 59.508235584639557, 36.45528873711973, 0.0 ], [ 59.507686998679787, 36.454295809323547, 0.0 ], [ 59.507252823062579, 36.453938528012102, 0.0 ], [ 59.502626837947808, 36.451468392228129, 0.0 ], [ 59.502505309416641, 36.451483321528322, 0.0 ], [ 59.495480409886468, 36.445390337156532, 0.0 ], [ 59.494189334269826, 36.444267815525272, 0.0 ], [ 59.492903701178953, 36.443152422191091, 0.0 ], [ 59.492245399767022, 36.442597410270757, 0.0 ], [ 59.491482587009394, 36.442179013568953, 0.0 ], [ 59.49063792129391, 36.441803510043762, 0.0 ], [ 59.488806370537532, 36.441324821289733, 0.0 ], [ 59.488036903079603, 36.440927339813221, 0.0 ], [ 59.487550515838343, 36.440279595817131, 0.0 ], [ 59.486764215035102, 36.438989611475769, 0.0 ], [ 59.485942778063198, 36.437144460418608, 0.0 ], [ 59.479322672759977, 36.431535848797708, 0.0 ], [ 59.476112457281189, 36.431925011299228, 0.0 ], [ 59.472707865817917, 36.430926381988193, 0.0 ], [ 59.472242545075602, 36.430374484873226, 0.0 ], [ 59.472646855534499, 36.429904568650322, 0.0 ], [ 59.473512933681938, 36.429221978723348, 0.0 ], [ 59.472945896989998, 36.428732800195107, 0.0 ], [ 59.471402374089337, 36.427885364134021, 0.0 ], [ 59.469888203211333, 36.42709295878165, 0.0 ], [ 59.461464386950688, 36.422123263083627, 0.0 ], [ 59.454677695481813, 36.428770096299537, 0.0 ], [ 59.446248427367671, 36.435978231536602, 0.0 ], [ 59.450132613982959, 36.438945910716413, 0.0 ], [ 59.454895568326307, 36.442640109001637, 0.0 ], [ 59.455136089847038, 36.442864000833751, 0.0 ], [ 59.455412868916369, 36.443356370896559, 0.0 ], [ 59.45557253040738, 36.444012686215842, 0.0 ], [ 59.455540041193899, 36.444652451874951, 0.0 ], [ 59.448283156941898, 36.449702502981559, 0.0 ], [ 59.443069881261259, 36.45334097147235, 0.0 ], [ 59.444939911329158, 36.454929577629002, 0.0 ], [ 59.452622906252152, 36.461474445202413, 0.0 ], [ 59.455853634432593, 36.464234124276963, 0.0 ], [ 59.45920299067047, 36.46705625716416, 0.0 ], [ 59.460388374483522, 36.468240109400867, 0.0 ], [ 59.461614918476101, 36.469360375937477, 0.0 ], [ 59.462148317329877, 36.469880629593682, 0.0 ], [ 59.462272771197867, 36.46996070021936, 0.0 ], [ 59.467297221056441, 36.473179655242873, 0.0 ], [ 59.47173749910155, 36.476020189654363, 0.0 ], [ 59.47322906037774, 36.476980137353443, 0.0 ], [ 59.475387887188234, 36.478595072744497, 0.0 ], [ 59.479384359936923, 36.481685004137617, 0.0 ], [ 59.482700561977971, 36.484336188486182, 0.0 ], [ 59.485379529939863, 36.486480136388721, 0.0 ], [ 59.486698111258612, 36.487542016496718, 0.0 ], [ 59.48733272070875, 36.488114624271013, 0.0 ], [ 59.487884616611979, 36.488746508029678, 0.0 ], [ 59.488367887700413, 36.489422310674072, 0.0 ], [ 59.489201224017627, 36.490802781004021, 0.0 ], [ 59.489710977148469, 36.4915682396853, 0.0 ], [ 59.490238698470982, 36.492178713802623, 0.0 ], [ 59.490864496733352, 36.492751290554743, 0.0 ], [ 59.492194114701597, 36.493707596101693, 0.0 ], [ 59.493665728319137, 36.494664866245067, 0.0 ], [ 59.495204266311219, 36.495531694810317, 0.0 ], [ 59.496014936081338, 36.495904300236852, 0.0 ], [ 59.49766316976708, 36.49660245638708, 0.0 ], [ 59.498520813345039, 36.496906577531043, 0.0 ], [ 59.499392091348767, 36.497174616649872, 0.0 ], [ 59.501195198581712, 36.497527381303513, 0.0 ], [ 59.503030976952552, 36.497827744491673, 0.0 ], [ 59.50491970550641, 36.498006662334987, 0.0 ], [ 59.506800067337728, 36.498196212837492, 0.0 ] ] ], [ [ [ 59.72163154681558, 36.249932508359372, 0.0 ], [ 59.721632134125912, 36.249906849232843, 0.0 ], [ 59.721734032896236, 36.249895539777512, 0.0 ], [ 59.721727164190902, 36.249849591900571, 0.0 ], [ 59.721687498441142, 36.249853483610607, 0.0 ], [ 59.721666103886299, 36.24977467692937, 0.0 ], [ 59.721615098233912, 36.249684246323007, 0.0 ], [ 59.721450016053687, 36.2495818104751, 0.0 ], [ 59.721353413333702, 36.249508998833143, 0.0 ], [ 59.721209715628348, 36.249395277214582, 0.0 ], [ 59.721151379868822, 36.249359735063742, 0.0 ], [ 59.721076608037009, 36.249312897656431, 0.0 ], [ 59.721010749024103, 36.249284673857268, 0.0 ], [ 59.720976410654067, 36.249272459328978, 0.0 ], [ 59.72077713187462, 36.249253869363052, 0.0 ], [ 59.720825190562643, 36.24916445104261, 0.0 ], [ 59.721241171768654, 36.248753768083162, 0.0 ], [ 59.720897643520942, 36.248525475386487, 0.0 ], [ 59.720435624804843, 36.248846701553461, 0.0 ], [ 59.720283789363748, 36.248110764778879, 0.0 ], [ 59.720127462609419, 36.247518506494131, 0.0 ], [ 59.720466133030648, 36.246369236032649, 0.0 ], [ 59.72056769305361, 36.245932630934853, 0.0 ], [ 59.72057430463208, 36.24538962911469, 0.0 ], [ 59.720720841120666, 36.245107503733358, 0.0 ], [ 59.720692019082819, 36.24441492607891, 0.0 ], [ 59.719827335563572, 36.24322167496738, 0.0 ], [ 59.719515701532274, 36.242860333687553, 0.0 ], [ 59.719091909974637, 36.242222585828102, 0.0 ], [ 59.718822272251117, 36.241685940790688, 0.0 ], [ 59.718632425506499, 36.24145295891195, 0.0 ], [ 59.718562420239422, 36.241413699217141, 0.0 ], [ 59.718324421139982, 36.241196307486483, 0.0 ], [ 59.717991891735572, 36.241043479783613, 0.0 ], [ 59.717424341650542, 36.240227448157931, 0.0 ], [ 59.716873792435671, 36.239175871894624, 0.0 ], [ 59.716505850006989, 36.238720611919177, 0.0 ], [ 59.715914243486473, 36.238079621825563, 0.0 ], [ 59.715751585716582, 36.23787516214513, 0.0 ], [ 59.715097862141562, 36.237022840677191, 0.0 ], [ 59.714894383215437, 36.237152264826932, 0.0 ], [ 59.713493434769347, 36.237868410615491, 0.0 ], [ 59.71304753693569, 36.23726576867827, 0.0 ], [ 59.711793445325142, 36.238233129526911, 0.0 ], [ 59.70967307882902, 36.239560449514421, 0.0 ], [ 59.709759732517867, 36.239871223417332, 0.0 ], [ 59.708737742561411, 36.240404271076052, 0.0 ], [ 59.709542717756662, 36.241556782786702, 0.0 ], [ 59.710115431230662, 36.241246414847943, 0.0 ], [ 59.711172378618862, 36.242234146741069, 0.0 ], [ 59.712183755084709, 36.243341353466811, 0.0 ], [ 59.712656562721882, 36.243995372307872, 0.0 ], [ 59.713428085689621, 36.24500674008916, 0.0 ], [ 59.714230521118509, 36.246206362214338, 0.0 ], [ 59.712700505659342, 36.246866476767373, 0.0 ], [ 59.713251161841349, 36.247687679523153, 0.0 ], [ 59.705114714733583, 36.250990053430399, 0.0 ], [ 59.70362506630736, 36.251621630889673, 0.0 ], [ 59.704947493211833, 36.251079382201468, 0.0 ], [ 59.705010392441842, 36.251207286666677, 0.0 ], [ 59.706587698704411, 36.251329455809064, 0.0 ], [ 59.708204920099483, 36.252394323586053, 0.0 ], [ 59.70899395609883, 36.251667801754579, 0.0 ], [ 59.710334347888811, 36.252988779818018, 0.0 ], [ 59.710399323717432, 36.253204008782802, 0.0 ], [ 59.711191576777743, 36.253660056625968, 0.0 ], [ 59.711935171195421, 36.254082376337678, 0.0 ], [ 59.712224744301217, 36.254284153729792, 0.0 ], [ 59.712341590388071, 36.25436557103189, 0.0 ], [ 59.712648529621177, 36.254490932876422, 0.0 ], [ 59.713492652470237, 36.254729972397527, 0.0 ], [ 59.715636875414987, 36.254728569632768, 0.0 ], [ 59.716260866571297, 36.254605769162872, 0.0 ], [ 59.717474273674881, 36.25446917970929, 0.0 ], [ 59.720025871046467, 36.253538715624032, 0.0 ], [ 59.720889484961518, 36.252667499826863, 0.0 ], [ 59.721514743565983, 36.251458290072073, 0.0 ], [ 59.721665891546259, 36.250921493366597, 0.0 ], [ 59.721648581199247, 36.250205395055822, 0.0 ], [ 59.72165328557012, 36.250015459749903, 0.0 ], [ 59.72163154681558, 36.249932508359372, 0.0 ] ] ], [ [ [ 59.672233158278907, 36.424569791275452, 0.0 ], [ 59.672244700303409, 36.421907328664737, 0.0 ], [ 59.67335437283235, 36.418419348599549, 0.0 ], [ 59.67437665008854, 36.413305941612613, 0.0 ], [ 59.674364609791112, 36.412450962203302, 0.0 ], [ 59.674756885470302, 36.412363821611557, 0.0 ], [ 59.67510079270096, 36.412141864650273, 0.0 ], [ 59.675778595087948, 36.412095150108037, 0.0 ], [ 59.675846728167834, 36.411966808518159, 0.0 ], [ 59.676280676983012, 36.411776145963351, 0.0 ], [ 59.676345284218748, 36.41140377786391, 0.0 ], [ 59.676245285566203, 36.411333396621757, 0.0 ], [ 59.676497789013013, 36.410191710179049, 0.0 ], [ 59.676636569282223, 36.410102700251777, 0.0 ], [ 59.676902060035907, 36.410121294820392, 0.0 ], [ 59.676978151381427, 36.40972993878303, 0.0 ], [ 59.676674441248331, 36.409674463314637, 0.0 ], [ 59.676711344718463, 36.408420878273972, 0.0 ], [ 59.676957427342728, 36.408358693714618, 0.0 ], [ 59.676777865127811, 36.407986781754637, 0.0 ], [ 59.676617904975799, 36.407981764828307, 0.0 ], [ 59.676622268066843, 36.407641472570923, 0.0 ], [ 59.676914079455557, 36.407376260217852, 0.0 ], [ 59.676790513842427, 36.407352566236533, 0.0 ], [ 59.676782785767372, 36.407179679956727, 0.0 ], [ 59.677360968781272, 36.407021449740583, 0.0 ], [ 59.67698851728899, 36.406355791107437, 0.0 ], [ 59.676973629343962, 36.405889111241692, 0.0 ], [ 59.677387935670453, 36.405818405157447, 0.0 ], [ 59.677252928803263, 36.405066843481919, 0.0 ], [ 59.676616912044821, 36.405137059067918, 0.0 ], [ 59.676647321167792, 36.403540903964597, 0.0 ], [ 59.676654863542147, 36.403494174933442, 0.0 ], [ 59.677115746761707, 36.403542783621518, 0.0 ], [ 59.677153495745351, 36.403303285274447, 0.0 ], [ 59.677509014522442, 36.403383200305782, 0.0 ], [ 59.677651497682142, 36.402914354343046, 0.0 ], [ 59.677304738585413, 36.402772320317027, 0.0 ], [ 59.677821314625483, 36.402620077875362, 0.0 ], [ 59.677828047887779, 36.40243686512364, 0.0 ], [ 59.679184202643107, 36.402229365060784, 0.0 ], [ 59.679580430619552, 36.402884775120427, 0.0 ], [ 59.680365682992303, 36.402741061440793, 0.0 ], [ 59.680878820745797, 36.403292406568283, 0.0 ], [ 59.681085007155438, 36.403149270721329, 0.0 ], [ 59.682842350016763, 36.40518333418953, 0.0 ], [ 59.683447486742757, 36.406742455040842, 0.0 ], [ 59.684851914466243, 36.406665424652182, 0.0 ], [ 59.684787975132537, 36.40590378650267, 0.0 ], [ 59.683694409034651, 36.405765315209869, 0.0 ], [ 59.68338448625488, 36.404963453423882, 0.0 ], [ 59.684335608777197, 36.404976879778431, 0.0 ], [ 59.684543531197818, 36.403336674801892, 0.0 ], [ 59.683076172667683, 36.403313648899001, 0.0 ], [ 59.683085134693641, 36.402966938507532, 0.0 ], [ 59.682920827110877, 36.402953399156367, 0.0 ], [ 59.682979940309799, 36.402484678425829, 0.0 ], [ 59.682972637997921, 36.401778786844979, 0.0 ], [ 59.682972609762928, 36.401697402015849, 0.0 ], [ 59.683096229395687, 36.40124066322813, 0.0 ], [ 59.682805070472767, 36.400022610069463, 0.0 ], [ 59.681292492983289, 36.400932010134682, 0.0 ], [ 59.680541578551122, 36.400576255432533, 0.0 ], [ 59.680063613258547, 36.401057871056089, 0.0 ], [ 59.679689244190037, 36.400711304157547, 0.0 ], [ 59.6803148807615, 36.399645810967392, 0.0 ], [ 59.681583009221953, 36.399610040935848, 0.0 ], [ 59.681591523279621, 36.398875158779532, 0.0 ], [ 59.679930439961417, 36.398862572887758, 0.0 ], [ 59.679929726952572, 36.398579992551667, 0.0 ], [ 59.680471689425012, 36.398643466738292, 0.0 ], [ 59.680640737920683, 36.398502228613992, 0.0 ], [ 59.680675922791963, 36.397449329030032, 0.0 ], [ 59.680144793203972, 36.3973839109672, 0.0 ], [ 59.680365278790397, 36.396541725171687, 0.0 ], [ 59.680390485058737, 36.395219171253153, 0.0 ], [ 59.680317416329373, 36.393983776371222, 0.0 ], [ 59.680213757295071, 36.393378599477018, 0.0 ], [ 59.68038361308119, 36.39297137865497, 0.0 ], [ 59.680351945822082, 36.392030549438623, 0.0 ], [ 59.680292149123012, 36.391648293321907, 0.0 ], [ 59.680505053799351, 36.390331098079919, 0.0 ], [ 59.680251273816509, 36.390283270471137, 0.0 ], [ 59.680316950086493, 36.38895300890843, 0.0 ], [ 59.68011312384607, 36.387621702750927, 0.0 ], [ 59.679757704002263, 36.386923174467903, 0.0 ], [ 59.679592366512857, 36.385837264941941, 0.0 ], [ 59.679559979337462, 36.385299680404508, 0.0 ], [ 59.679399134103477, 36.385309731274212, 0.0 ], [ 59.679333607054772, 36.384986489901301, 0.0 ], [ 59.678870615187982, 36.384381648424103, 0.0 ], [ 59.677199425067741, 36.384827233770928, 0.0 ], [ 59.676304856323917, 36.384664334870223, 0.0 ], [ 59.675927696012522, 36.384735035913302, 0.0 ], [ 59.675974941674419, 36.383737841635643, 0.0 ], [ 59.675426612875462, 36.383852544616282, 0.0 ], [ 59.675317100529043, 36.382847757679968, 0.0 ], [ 59.674560118159533, 36.382896846369597, 0.0 ], [ 59.674708173783742, 36.38157396112166, 0.0 ], [ 59.674186947726973, 36.381136511193453, 0.0 ], [ 59.675059151618697, 36.380823127244803, 0.0 ], [ 59.674722446504937, 36.380005302735142, 0.0 ], [ 59.675861447949742, 36.379646656750687, 0.0 ], [ 59.676042601847954, 36.379837630564182, 0.0 ], [ 59.677973201364942, 36.379740368952092, 0.0 ], [ 59.67791661412884, 36.379211432074818, 0.0 ], [ 59.678438469647389, 36.379068493817357, 0.0 ], [ 59.678438567631069, 36.378801817457592, 0.0 ], [ 59.680479534579881, 36.37862785682394, 0.0 ], [ 59.680518186202256, 36.377555725423527, 0.0 ], [ 59.677315862904827, 36.377847514054068, 0.0 ], [ 59.677250967009442, 36.377330833813303, 0.0 ], [ 59.676710972994421, 36.376738156091577, 0.0 ], [ 59.676986410836797, 36.376292005318199, 0.0 ], [ 59.677049577975552, 36.375823359163817, 0.0 ], [ 59.677599343973768, 36.374775915155162, 0.0 ], [ 59.677670369660262, 36.374258251761752, 0.0 ], [ 59.678459246338051, 36.373643852291529, 0.0 ], [ 59.676613869508323, 36.370017549148471, 0.0 ], [ 59.674747403748903, 36.370860052125273, 0.0 ], [ 59.67468702418283, 36.370704337805343, 0.0 ], [ 59.674805488038153, 36.370649798862772, 0.0 ], [ 59.674687217556361, 36.370308272070062, 0.0 ], [ 59.674552417452887, 36.370338563709822, 0.0 ], [ 59.674305769673893, 36.369620663469483, 0.0 ], [ 59.672888524688133, 36.370249219506348, 0.0 ], [ 59.672761835064307, 36.370073053850213, 0.0 ], [ 59.672092951385594, 36.37033703532304, 0.0 ], [ 59.672044733947033, 36.370142389605341, 0.0 ], [ 59.671592461075512, 36.370207164762398, 0.0 ], [ 59.671687610373837, 36.370411083153087, 0.0 ], [ 59.671224439876013, 36.370552427245883, 0.0 ], [ 59.671347851878657, 36.370980823550802, 0.0 ], [ 59.671066300910532, 36.371070612721972, 0.0 ], [ 59.670665019803927, 36.370247657561251, 0.0 ], [ 59.669541057224023, 36.370456264181442, 0.0 ], [ 59.670022806551422, 36.372153877848781, 0.0 ], [ 59.669669057398892, 36.372423811395507, 0.0 ], [ 59.66988408655606, 36.373148198496096, 0.0 ], [ 59.66932109794211, 36.37369160036549, 0.0 ], [ 59.668025026208952, 36.375446321538703, 0.0 ], [ 59.668174057677, 36.375976989132077, 0.0 ], [ 59.667739388146607, 36.376154928440208, 0.0 ], [ 59.667317029588801, 36.375668639195858, 0.0 ], [ 59.665305237621922, 36.376017454641861, 0.0 ], [ 59.664093308638812, 36.376439030741558, 0.0 ], [ 59.664472242096963, 36.377497005793337, 0.0 ], [ 59.664786759903819, 36.378071908992517, 0.0 ], [ 59.665469976802953, 36.377863891854723, 0.0 ], [ 59.665701417529803, 36.378386392780513, 0.0 ], [ 59.666680813410068, 36.378102710033872, 0.0 ], [ 59.66710572080742, 36.378689973514767, 0.0 ], [ 59.666719957444037, 36.3789384405056, 0.0 ], [ 59.667505499596558, 36.378980852914196, 0.0 ], [ 59.667403128165553, 36.379290517106753, 0.0 ], [ 59.66274452099907, 36.37902576155431, 0.0 ], [ 59.662668496264772, 36.379787290334463, 0.0 ], [ 59.663072331684177, 36.379813652483129, 0.0 ], [ 59.663047003369883, 36.380080971855378, 0.0 ], [ 59.667014959899873, 36.380326732344521, 0.0 ], [ 59.667099152870421, 36.380221238889973, 0.0 ], [ 59.667269488514428, 36.379799536676757, 0.0 ], [ 59.66943722528498, 36.380436144443607, 0.0 ], [ 59.66928837096016, 36.381710404578129, 0.0 ], [ 59.669274129603167, 36.384291721123923, 0.0 ], [ 59.670272910479703, 36.38577714198356, 0.0 ], [ 59.66965041256843, 36.386084049470313, 0.0 ], [ 59.669408079548077, 36.386674239138983, 0.0 ], [ 59.66904168732043, 36.388929787225379, 0.0 ], [ 59.669375300816156, 36.389326179057853, 0.0 ], [ 59.669212283669147, 36.389415868543963, 0.0 ], [ 59.669264018113189, 36.390523895274541, 0.0 ], [ 59.669496276514138, 36.390904604717392, 0.0 ], [ 59.668932817417137, 36.391173389148904, 0.0 ], [ 59.668915165787013, 36.391479141143471, 0.0 ], [ 59.669283661198548, 36.3922208311322, 0.0 ], [ 59.668464989956462, 36.392549815062679, 0.0 ], [ 59.668394160564219, 36.392817605889313, 0.0 ], [ 59.669380348875798, 36.394852821956832, 0.0 ], [ 59.669527435774199, 36.395343835156083, 0.0 ], [ 59.669439994854869, 36.39623779412748, 0.0 ], [ 59.669148188393891, 36.396212733920109, 0.0 ], [ 59.669087561398342, 36.396674125155172, 0.0 ], [ 59.669298341151432, 36.396983224059092, 0.0 ], [ 59.668944447809658, 36.397408541844932, 0.0 ], [ 59.668685642772509, 36.398160724046591, 0.0 ], [ 59.66891397200169, 36.399244905163997, 0.0 ], [ 59.668798926758832, 36.399938043892668, 0.0 ], [ 59.668414952621902, 36.400632313170433, 0.0 ], [ 59.668298565150032, 36.40117717466994, 0.0 ], [ 59.668285448374959, 36.402108514496717, 0.0 ], [ 59.667030101392122, 36.40370834899749, 0.0 ], [ 59.666595027987277, 36.404617936154509, 0.0 ], [ 59.666542164897571, 36.405534105533498, 0.0 ], [ 59.667489387046942, 36.407241840437223, 0.0 ], [ 59.665315144897598, 36.40810566746417, 0.0 ], [ 59.66509370025161, 36.408897714873987, 0.0 ], [ 59.663989132318768, 36.409850029702817, 0.0 ], [ 59.664690005452222, 36.41138280081001, 0.0 ], [ 59.667147197234442, 36.410915089412207, 0.0 ], [ 59.666038820028248, 36.413424553246699, 0.0 ], [ 59.666894317542152, 36.415706431606232, 0.0 ], [ 59.667223416172298, 36.415853649516137, 0.0 ], [ 59.667979027620369, 36.416809699349372, 0.0 ], [ 59.667875402147438, 36.417270980644098, 0.0 ], [ 59.665339526293252, 36.419150053746939, 0.0 ], [ 59.663783183773809, 36.422853734774932, 0.0 ], [ 59.663949965525887, 36.423302493678591, 0.0 ], [ 59.664381683924923, 36.423127520171278, 0.0 ], [ 59.66384107599584, 36.424097986367649, 0.0 ], [ 59.663706293058347, 36.426415436763392, 0.0 ], [ 59.661868680033059, 36.428785659224218, 0.0 ], [ 59.663027663256862, 36.428457317018797, 0.0 ], [ 59.662791880718373, 36.42982823030259, 0.0 ], [ 59.661841668794487, 36.429869185635532, 0.0 ], [ 59.661653164731163, 36.430404778606238, 0.0 ], [ 59.664091109405682, 36.430219566798783, 0.0 ], [ 59.665671873142777, 36.429238211521927, 0.0 ], [ 59.671988974470089, 36.427481899379274, 0.0 ], [ 59.672233158278907, 36.424569791275452, 0.0 ] ] ] ] } },
{ "type": "Feature", "properties": { "ostan": "خراسان رضوی", "shahrestan": "مشهد", "bakhsh": "رضویه", "shahr": "رضویه" }, "geometry": { "type": "MultiPolygon", "coordinates": [ [ [ [ 59.764188785709045, 36.206999908457881, 0.0 ], [ 59.765569000516287, 36.207861030433811, 0.0 ], [ 59.759665549608876, 36.212869917430524, 0.0 ], [ 59.764161608057272, 36.216360072403425, 0.0 ], [ 59.768067986698391, 36.214936472725725, 0.0 ], [ 59.771703067431829, 36.213033815827941, 0.0 ], [ 59.772051883049535, 36.213033163427433, 0.0 ], [ 59.772530042761936, 36.212773804639056, 0.0 ], [ 59.77257912212815, 36.212414519055422, 0.0 ], [ 59.775122919214319, 36.210396674774174, 0.0 ], [ 59.775318237413686, 36.210298697151678, 0.0 ], [ 59.775613321326368, 36.210047481922366, 0.0 ], [ 59.775719313567507, 36.209715416226089, 0.0 ], [ 59.776234240927415, 36.209186577546525, 0.0 ], [ 59.777146009412363, 36.208282946106358, 0.0 ], [ 59.776752922472816, 36.207630898538753, 0.0 ], [ 59.777772481402422, 36.206692697992452, 0.0 ], [ 59.776738298338991, 36.2052508638929, 0.0 ], [ 59.774634054161631, 36.202919303154061, 0.0 ], [ 59.772129300569532, 36.2011128876524, 0.0 ], [ 59.771503945644376, 36.200618514689459, 0.0 ], [ 59.764480505232946, 36.206641112184393, 0.0 ], [ 59.764188785709045, 36.206999908457881, 0.0 ] ] ] ] } },
{ "type": "Feature", "properties": { "ostan": "خراسان رضوی", "shahrestan": "مشهد", "bakhsh": "احمدآباد", "shahr": "ملک آباد" }, "geometry": { "type": "MultiPolygon", "coordinates": [ [ [ [ 59.587290508734739, 36.000909298791306, 0.0 ], [ 59.588262792535076, 36.001210478685373, 0.0 ], [ 59.588056480911462, 36.001519762301058, 0.0 ], [ 59.588780684173337, 36.001828118797015, 0.0 ], [ 59.589028867852605, 36.001447775434301, 0.0 ], [ 59.589670822038492, 36.00164662030307, 0.0 ], [ 59.589167882937424, 36.002365564095051, 0.0 ], [ 59.592145521280436, 36.00348818625789, 0.0 ], [ 59.593494558820247, 36.003930381620933, 0.0 ], [ 59.594650959510957, 36.00311163758289, 0.0 ], [ 59.596071663670422, 36.003640089682996, 0.0 ], [ 59.597470825761881, 36.002580043644883, 0.0 ], [ 59.598052623517084, 36.002982267123613, 0.0 ], [ 59.602896657508595, 35.9990182475224, 0.0 ], [ 59.598248278535308, 35.995165738405696, 0.0 ], [ 59.599617828055038, 35.993950810549485, 0.0 ], [ 59.594338216168232, 35.992575370706078, 0.0 ], [ 59.593639784142333, 35.994395654937115, 0.0 ], [ 59.592070029624743, 35.996626693834862, 0.0 ], [ 59.591758737609119, 35.997247977870039, 0.0 ], [ 59.591584656235959, 35.997613048531321, 0.0 ], [ 59.590072145558835, 35.99769633708776, 0.0 ], [ 59.590076408024331, 35.997437959651911, 0.0 ], [ 59.589808655540153, 35.997368067654861, 0.0 ], [ 59.589616575746035, 35.996786430920118, 0.0 ], [ 59.589597899975573, 35.996501206222888, 0.0 ], [ 59.589284944975226, 35.996425352650995, 0.0 ], [ 59.588706411606886, 35.996325225104314, 0.0 ], [ 59.588016491196115, 35.996159781122451, 0.0 ], [ 59.587845225296654, 35.99641796141232, 0.0 ], [ 59.588032943979314, 35.996712947503717, 0.0 ], [ 59.587523423519997, 35.998777845415816, 0.0 ], [ 59.587711141478977, 36.00006505524609, 0.0 ], [ 59.587290508734739, 36.000909298791306, 0.0 ] ] ] ] } },
{ "type": "Feature", "properties": { "ostan": "خراسان رضوی", "shahrestan": "مشهد", "bakhsh": "احمدآباد", "shahr": "بینالود" }, "geometry": { "type": "MultiPolygon", "coordinates": [ [ [ [ 59.362220121364331, 35.992333616086675, 0.0 ], [ 59.343988652097515, 35.989378351461795, 0.0 ], [ 59.335445552746677, 35.988677085977073, 0.0 ], [ 59.332102600826794, 35.990705729777027, 0.0 ], [ 59.331611217847836, 35.991550982630791, 0.0 ], [ 59.332005871893926, 35.993178851497674, 0.0 ], [ 59.33021058289993, 35.99337294131341, 0.0 ], [ 59.328144452893866, 35.993973990616567, 0.0 ], [ 59.32676703288984, 35.994531209316882, 0.0 ], [ 59.325822958505057, 35.995069641624738, 0.0 ], [ 59.324933052322685, 35.99568319954146, 0.0 ], [ 59.3237490901844, 35.996972907764636, 0.0 ], [ 59.322541913102206, 35.998550580406949, 0.0 ], [ 59.322077614224455, 35.999664949206277, 0.0 ], [ 59.32182998815631, 36.000704177829185, 0.0 ], [ 59.321799034897801, 36.001004675119425, 0.0 ], [ 59.318487036236426, 36.000403679393912, 0.0 ], [ 59.317341765671287, 36.000065617285493, 0.0 ], [ 59.317125092861644, 36.000591491050123, 0.0 ], [ 59.314757168585068, 36.000190825642775, 0.0 ], [ 59.313673804536947, 35.999802679088127, 0.0 ], [ 59.313008309478818, 35.999802679088127, 0.0 ], [ 59.312064235094041, 36.000704177829199, 0.0 ], [ 59.312017805206267, 36.001230047335625, 0.0 ], [ 59.312915449703269, 36.002945359207075, 0.0 ], [ 59.3135035616151, 36.003371051264608, 0.0 ], [ 59.314029767009899, 36.003320969965415, 0.0 ], [ 59.314648832180261, 36.003308449635604, 0.0 ], [ 59.314555972404705, 36.003859342265407, 0.0 ], [ 59.31461787892173, 36.004222428485257, 0.0 ], [ 59.316211971735385, 36.004435271354055, 0.0 ], [ 59.316815560276474, 36.00452291236833, 0.0 ], [ 59.320251371971914, 36.006876663167333, 0.0 ], [ 59.3226657261363, 36.007026900194319, 0.0 ], [ 59.323470510857746, 36.008529254718283, 0.0 ], [ 59.326596789968029, 36.009155227320356, 0.0 ], [ 59.327308714913926, 36.008954916628475, 0.0 ], [ 59.335170842577391, 36.008654449636346, 0.0 ], [ 59.340804335627574, 36.009105149695102, 0.0 ], [ 59.339751924837984, 36.018519184057041, 0.0 ], [ 59.34656164171183, 36.021723705170515, 0.0 ], [ 59.350461752285035, 36.018068537824455, 0.0 ], [ 59.354098760160845, 36.012535393482054, 0.0 ], [ 59.357751244665906, 36.005274117066058, 0.0 ], [ 59.362220121364331, 35.992333616086675, 0.0 ] ] ] ] } }
]
}
